Coordinates
version=1
nRows=90
nColumns=64
inDegrees=yes

Units are S.I. units (second, meters, Newtons, ...)
If the header above contains a line with 'inDegrees', this indicates whether rotational values are in degrees (yes) or radians (no).

endheader
time	pelvic_tilt	pelvic_list	pelvic_rotation	pelvic_tx	pelvic_ty	pelvic_tz	lumbar_extension	lumbar_bending	lumbar_rotation	neck_flex	neck_tilt	neck_rot	neck_tx1	neck_ty1	neck_tz1	SternumRRotZ	SternumRRotX	SternumRRotY	SternumRX	SternumRY	SternumRZ	SternumLRotZ	SternumLRotX	SternumLRotY	SternumLX	SternumLY	SternumLZ	shoulder_add_r	shoulder_flex_r	shoulder_rot_r	elbow_flexion_r	elbow_varus_valg_r	pro_sup_r	wrist_dev_r	wrist_flex_r	shoulder_add_l	shoulder_flex_l	shoulder_rot_l	elbow_flexion_l	elbow_varus_valg_l	pro_sup_l	wrist_dev_l	wrist_flex_l	hip_flexion_r	hip_adduction_r	hip_rotation_r	knee_angle_r	knee_rotation_r	knee_adduction_r	knee_tz_r	ankle_angle_r	subtalar_angle_r	mtp_angle_r	hip_flexion_l	hip_adduction_l	hip_rotation_l	knee_angle_l	knee_rotation_l	knee_adduction_l	knee_tz_l	ankle_angle_l	subtalar_angle_l	mtp_angle_l
      0.03333333	    -15.44721884	     -1.55732278	   -177.68183886	     -0.12227819	     -0.02715096	     -0.60057126	    -18.37401987	     -0.49178520	     -3.29668134	     -5.42624836	      2.70742135	      3.25557560	     -0.02030015	      0.00924442	      0.00288345	      0.00000000	      0.00000000	      0.00000000	      0.01840583	     -0.01037844	      0.01859793	      0.00000000	      0.00000000	      0.00000000	     -0.01721675	     -0.00622201	     -0.00990397	     -2.60426066	      5.67066586	     37.24388044	      6.01534472	      0.00000000	      0.00000000	      0.00000000	      0.00000000	      9.69065314	      7.80196588	    -62.28011645	      8.55179762	      0.00000000	      0.00000000	      0.00000000	      0.00000000	    -21.95102943	     -3.61649987	    -10.99697374	      2.77799294	      5.88069745	     -3.56884295	      0.00000000	      5.29009985	      0.78082073	      0.00000000	    -23.39831783	     -1.59805730	    -22.01679169	      5.13582897	     10.63079535	     -0.91151132	      0.00000000	     10.54214590	      9.08288288	      0.00000000
      0.06666667	    -13.89331619	     -1.57433866	   -177.28515640	     -0.12128181	     -0.02726836	     -0.59970140	    -16.95507481	     -0.19205192	     -4.18550428	     -5.99405479	      2.08999727	      1.90562883	     -0.01943398	      0.01019413	      0.00415675	      0.00000000	      0.00000000	      0.00000000	      0.02120001	     -0.01303171	      0.00741510	      0.00000000	      0.00000000	      0.00000000	     -0.01801659	     -0.00561341	     -0.00325215	     -7.17235088	      4.36396015	     45.34970411	     14.87185138	      0.00000000	      0.00000000	      0.00000000	      0.00000000	     11.68639609	      7.81297838	    -67.67415265	     11.18328300	      0.00000000	      0.00000000	      0.00000000	      0.00000000	    -20.21892551	     -3.25071879	    -12.34238607	      3.01853968	      4.58578326	     -4.17602665	      0.00000000	      4.29658295	      1.05050693	      0.00000000	    -21.71249859	     -1.14167263	    -22.99345746	      5.66160106	     13.50156359	     -1.54193534	      0.00000000	     10.98817581	      9.04781398	      0.00000000
      0.10000000	    -13.31454600	     -1.64170024	   -177.05980925	     -0.12073790	     -0.02740803	     -0.59928841	    -16.78011767	     -0.11080552	     -4.89105291	     -5.73045422	      1.11660350	      1.00089164	     -0.01880266	      0.01076626	      0.00737503	      0.00000000	      0.00000000	      0.00000000	      0.01937489	     -0.01392850	      0.00673612	      0.00000000	      0.00000000	      0.00000000	     -0.01953871	     -0.00409765	     -0.00046731	     -7.64382820	      5.34989618	     46.27243983	     16.55796574	      0.00000000	      0.00000000	      0.00000000	      0.00000000	     12.22529999	      7.88220915	    -68.42560744	     11.88255642	      0.00000000	      0.00000000	      0.00000000	      0.00000000	    -19.75432365	     -2.90906122	    -12.76698252	      3.54314915	      4.23200386	     -4.98473282	      0.00000000	      3.47107450	      1.03411869	      0.00000000	    -21.37908584	     -0.82096192	    -22.90707858	      6.59496921	     14.57731799	     -1.86161965	      0.00000000	     10.62008600	      9.29750745	      0.00000000
      0.13333333	    -11.89135406	     -1.85585077	   -176.46131828	     -0.11985412	     -0.02722497	     -0.59842739	    -15.51272199	     -0.03703858	     -5.65554157	     -5.74901472	      0.57881987	      0.28398069	     -0.01721851	      0.01073211	      0.00737023	      0.00000000	      0.00000000	      0.00000000	      0.02104873	     -0.01375483	      0.00372182	      0.00000000	      0.00000000	      0.00000000	     -0.01748744	     -0.00475985	      0.00156639	     -8.51070165	      5.41602633	     48.08375663	     17.03554785	      0.00000000	      0.00000000	      0.00000000	      0.00000000	     12.71659668	      7.61816793	    -71.91488704	     12.35012207	      0.00000000	      0.00000000	      0.00000000	      0.00000000	    -18.32138158	     -3.21324830	    -13.32713233	      3.43528145	      4.06796094	     -4.82174257	      0.00000000	      3.75070045	      1.08526219	      0.00000000	    -19.49634901	     -0.53648870	    -22.86144527	      6.01755330	     14.89690267	     -2.28402601	      0.00000000	     11.00049597	      9.72085107	      0.00000000
      0.16666667	    -11.37608232	     -1.96547467	   -176.35725612	     -0.11895261	     -0.02687561	     -0.59817475	    -15.50831602	     -0.10480264	     -5.82105465	     -5.56556827	      0.91582196	      0.51560368	     -0.01771878	      0.01122168	      0.00648130	      0.00000000	      0.00000000	      0.00000000	      0.02077570	     -0.01189133	      0.00702306	      0.00000000	      0.00000000	      0.00000000	     -0.01628795	     -0.00395649	      0.00028269	     -7.20985355	      5.97702219	     45.92636165	     14.81256138	      0.00000000	      0.00000000	      0.00000000	      0.00000000	     11.64024675	      7.87903042	    -72.34336780	     10.46108046	      0.00000000	      0.00000000	      0.00000000	      0.00000000	    -17.65643836	     -3.54629975	    -13.36035235	      3.05588110	      4.22527460	     -4.58183122	      0.00000000	      4.18054222	      1.25540605	      0.00000000	    -18.82222293	     -0.54644126	    -23.22269042	      5.72516031	     14.89690267	     -1.96694361	      0.00000000	     10.76852407	      9.84775119	      0.00000000
      0.20000000	    -11.20563963	     -2.02827923	   -176.16703059	     -0.11840799	     -0.02637137	     -0.59799139	    -15.87329220	     -0.08613097	     -5.82181584	     -5.51264183	      0.97626822	      0.53671282	     -0.01800803	      0.01174687	      0.00571171	      0.00000000	      0.00000000	      0.00000000	      0.02049605	     -0.01062309	      0.00707938	      0.00000000	      0.00000000	      0.00000000	     -0.01348616	     -0.00357197	      0.00141039	     -7.32096600	      5.97856874	     45.66721719	     14.57983450	      0.00000000	      0.00000000	      0.00000000	      0.00000000	     11.48789842	      7.86664127	    -72.36251197	     10.25118687	      0.00000000	      0.00000000	      0.00000000	      0.00000000	    -17.53446565	     -3.68868013	    -13.29087282	      3.06267720	      4.31415228	     -4.43516970	      0.00000000	      4.13658573	      1.34634794	      0.00000000	    -18.52335904	     -0.65267247	    -23.36202703	      5.44456412	     14.89690267	     -1.63375100	      0.00000000	     10.58804679	      9.87992041	      0.00000000
      0.23333333	    -10.92968884	     -2.08537470	   -176.10420656	     -0.11783798	     -0.02589405	     -0.59798828	    -16.25494374	     -0.12355640	     -5.62462400	     -5.25124824	      1.05327024	      0.53548439	     -0.01808144	      0.01189208	      0.00497887	      0.00000000	      0.00000000	      0.00000000	      0.01975293	     -0.00945848	      0.00942846	      0.00000000	      0.00000000	      0.00000000	     -0.01339158	     -0.00295508	     -0.00009698	     -7.05590916	      6.03154238	     45.55290920	     14.56351211	      0.00000000	      0.00000000	      0.00000000	      0.00000000	     11.06084077	      8.22433616	    -72.35426350	     10.04378023	      0.00000000	      0.00000000	      0.00000000	      0.00000000	    -17.26038607	     -3.80228304	    -13.37141991	      3.17835251	      4.33382384	     -4.29355367	      0.00000000	      3.96897819	      1.40628674	      0.00000000	    -18.22361584	     -0.70747213	    -23.42658081	      5.43406185	     14.89690267	     -1.31428052	      0.00000000	     10.57182412	      9.95518818	      0.00000000
      0.26666667	    -10.12909187	     -1.85715839	   -176.37533140	     -0.11695594	     -0.02538940	     -0.59806536	    -16.22412134	      0.10095173	     -5.04628517	     -3.25444001	      1.08334012	     -0.07576966	     -0.01481610	      0.00922317	      0.00329312	      0.00000000	      0.00000000	      0.00000000	      0.01829806	     -0.00788513	      0.01087912	      0.00000000	      0.00000000	      0.00000000	     -0.01558886	     -0.00261682	     -0.00456583	     -6.92535736	      6.30964508	     45.44235162	     14.24540096	      0.00000000	      0.00000000	      0.00000000	      0.00000000	      9.65722756	      8.98005212	    -72.67468725	      8.15670105	      0.00000000	      0.00000000	      0.00000000	      0.00000000	    -16.22342373	     -3.72249761	    -13.80863165	      3.15451476	      5.09757139	     -4.25044065	      0.00000000	      3.72753919	      1.72923540	      0.00000000	    -17.37878557	     -0.85295389	    -23.91737677	      5.46805194	     14.88346385	     -1.18896956	      0.00000000	     10.64286300	     10.09977138	      0.00000000
      0.30000000	     -9.51044331	     -1.75769016	   -176.46582253	     -0.11615688	     -0.02488425	     -0.59806873	    -16.45281080	      0.22299637	     -4.80984221	     -2.29837779	      0.73594845	     -0.39314083	     -0.01403840	      0.00854400	      0.00370536	      0.00000000	      0.00000000	      0.00000000	      0.01679420	     -0.00656079	      0.01177904	      0.00000000	      0.00000000	      0.00000000	     -0.01751902	     -0.00332829	     -0.00687242	     -7.12583586	      6.57971073	     45.24329286	     14.87421070	      0.00000000	      0.00000000	      0.00000000	      0.00000000	      9.29066186	      9.46939168	    -72.87453755	      8.05032796	      0.00000000	      0.00000000	      0.00000000	      0.00000000	    -15.48830414	     -3.82159638	    -14.16235842	      3.23197304	      5.56574670	     -4.00948255	      0.00000000	      3.19008794	      1.94492072	      0.00000000	    -16.72974735	     -0.85528221	    -24.31639613	      5.58653318	     14.89690267	     -1.16621689	      0.00000000	     10.37256565	      9.80338769	      0.00000000
      0.33333333	     -8.09476264	     -1.51740314	   -176.83689495	     -0.11528239	     -0.02470485	     -0.59810024	    -15.76680145	      0.49450895	     -4.39183046	     -0.86844974	      0.18202312	     -0.88867576	     -0.01205347	      0.00743829	      0.00306412	      0.00000000	      0.00000000	      0.00000000	      0.01632001	     -0.00491416	      0.01191280	      0.00000000	      0.00000000	      0.00000000	     -0.01873012	     -0.00442921	     -0.01044098	     -7.35159336	      6.32348180	     42.05388487	     16.62707293	      0.00000000	      0.00000000	      0.00000000	      0.00000000	      8.26727177	      9.98001141	    -72.76682098	      7.15759367	      0.00000000	      0.00000000	      0.00000000	      0.00000000	    -13.66184646	     -3.91167941	    -15.02311084	      2.81681908	      7.26862610	     -3.92216992	      0.00000000	      3.47702023	      2.34315490	      0.00000000	    -15.25288995	     -0.94056054	    -24.23513255	      5.56749420	     14.89690267	     -1.12644660	      0.00000000	     10.30991729	      8.80778804	      0.00000000
      0.36666667	     -7.67383951	     -1.43553818	   -176.66332082	     -0.11482814	     -0.02402594	     -0.59825725	    -16.24541431	      0.62835308	     -4.56267844	     -0.52639069	      0.20930001	     -0.94860391	     -0.01437302	      0.00806518	      0.00325963	      0.00000000	      0.00000000	      0.00000000	      0.01365664	     -0.00406608	      0.01237945	      0.00000000	      0.00000000	      0.00000000	     -0.01917953	     -0.00501785	     -0.00984450	     -7.35138007	      7.15610169	     41.33308771	     17.00176739	      0.00000000	      0.00000000	      0.00000000	      0.00000000	      8.18643547	     10.56273958	    -72.55406014	      7.09218554	      0.00000000	      0.00000000	      0.00000000	      0.00000000	    -13.24553333	     -4.05374458	    -15.09455931	      2.85368990	      7.39231685	     -3.51523453	      0.00000000	      3.14859006	      2.42802446	      0.00000000	    -14.72465969	     -1.06522533	    -24.41515984	      5.57698638	     14.89690267	     -0.98242739	      0.00000000	      9.56770952	      8.75655786	      0.00000000
      0.40000000	     -6.67281691	     -1.50914916	   -176.33207993	     -0.11396578	     -0.02297300	     -0.59852746	    -16.04695147	      0.53748294	     -4.41205430	      0.58831660	      0.46971446	     -1.24520421	     -0.01431620	      0.00686454	      0.00298009	      0.00000000	      0.00000000	      0.00000000	      0.01178369	     -0.00357387	      0.01634972	      0.00000000	      0.00000000	      0.00000000	     -0.01633230	     -0.00513200	     -0.01197389	     -5.70505070	      7.44615578	     35.77915104	     16.14029520	      0.00000000	      0.00000000	      0.00000000	      0.00000000	      7.10570264	     11.04973560	    -70.39652203	      6.11398647	      0.00000000	      0.00000000	      0.00000000	      0.00000000	    -12.00193999	     -4.24311668	    -15.67982121	      2.33666587	      8.17442991	     -3.48510324	      0.00000000	      2.97783922	      2.14122383	      0.00000000	    -13.28555529	     -1.06569348	    -24.04112440	      5.05053034	     14.89690267	     -0.97736382	      0.00000000	      9.28145593	      8.47911613	      0.00000000
      0.43333333	     -6.54763067	     -1.51959737	   -176.24454588	     -0.11412386	     -0.02165810	     -0.59864016	    -16.56384455	      0.53032676	     -4.43091145	      0.58119557	      0.64418175	     -1.16807386	     -0.01638117	      0.00682087	      0.00260667	      0.00000000	      0.00000000	      0.00000000	      0.01332787	     -0.00330706	      0.01581992	      0.00000000	      0.00000000	      0.00000000	     -0.01325343	     -0.00565194	     -0.01144070	     -5.58779301	      7.21987465	     35.77949630	     15.91338577	      0.00000000	      0.00000000	      0.00000000	      0.00000000	      7.15504941	     11.21007421	    -70.29466709	      6.26855830	      0.00000000	      0.00000000	      0.00000000	      0.00000000	    -11.89323542	     -4.31602262	    -15.69876720	      2.19647480	      8.20523796	     -3.37959176	      0.00000000	      2.45774329	      2.24066196	      0.00000000	    -12.94551058	     -1.14428199	    -24.06378916	      4.72790274	     14.89690267	     -0.83569813	      0.00000000	      8.83284964	      8.60863632	      0.00000000
      0.46666667	     -6.43929033	     -1.62749520	   -176.01580962	     -0.11431825	     -0.02044113	     -0.59929060	    -17.09475187	      0.22964929	     -4.51968465	      0.32499085	      1.36530676	     -0.80389719	     -0.01919932	      0.00696694	      0.00272806	      0.00000000	      0.00000000	      0.00000000	      0.01316128	     -0.00435795	      0.01581132	      0.00000000	      0.00000000	      0.00000000	     -0.00941259	     -0.00540380	     -0.00984562	     -5.51923414	      7.11427650	     36.30803061	     15.93418096	      0.00000000	      0.00000000	      0.00000000	      0.00000000	      7.74350989	     11.17745907	    -70.23796456	      6.89842219	      0.00000000	      0.00000000	      0.00000000	      0.00000000	    -11.96721315	     -4.33031374	    -15.95997634	      2.32668121	      8.04829571	     -3.37163018	      0.00000000	      1.63163498	      2.42944912	      0.00000000	    -12.50380248	     -1.12561219	    -24.10240144	      4.23378884	     14.89690267	     -0.87581666	      0.00000000	      8.78759698	      8.73295783	      0.00000000
      0.50000000	     -6.31372177	     -1.85717422	   -175.51886627	     -0.11542862	     -0.01980635	     -0.59965572	    -17.20087838	     -0.08905930	     -5.33190547	     -0.27528922	      2.01538564	     -0.31989512	     -0.01986960	      0.00726497	      0.00232754	      0.00000000	      0.00000000	      0.00000000	      0.01628089	     -0.00578865	      0.01308335	      0.00000000	      0.00000000	      0.00000000	     -0.00562490	     -0.00539063	     -0.00722132	     -6.50970185	      6.61529617	     39.43102222	     17.49221375	      0.00000000	      0.00000000	      0.00000000	      0.00000000	      9.05335752	     10.50154167	    -71.08737736	      8.82003884	      0.00000000	      0.00000000	      0.00000000	      0.00000000	    -12.17510943	     -4.52004548	    -16.68615300	      2.48157847	      7.53863454	     -3.16818865	      0.00000000	      1.75674219	      3.20041326	      0.00000000	    -12.23148940	     -0.96670220	    -23.29784261	      4.02393710	     14.89690267	     -1.06956169	      0.00000000	      8.66325973	      8.46633764	      0.00000000
      0.53333333	     -5.98970709	     -2.22177538	   -175.63622932	     -0.11660759	     -0.01942757	     -0.59971246	    -17.03414790	     -0.61627676	     -5.60238393	     -1.01227716	      2.20005748	      0.22808376	     -0.02082971	      0.00766305	      0.00232714	      0.00000000	      0.00000000	      0.00000000	      0.01685602	     -0.00739279	      0.01118773	      0.00000000	      0.00000000	      0.00000000	     -0.00450261	     -0.00569798	     -0.00624485	     -7.09068782	      6.98726598	     40.92151658	     18.57192509	      0.00000000	      0.00000000	      0.00000000	      0.00000000	      9.59034365	     10.29894978	    -72.17319273	      9.45446948	      0.00000000	      0.00000000	      0.00000000	      0.00000000	    -12.03196273	     -5.08201513	    -17.05994171	      2.64492401	      7.30008794	     -2.81156522	      0.00000000	      2.01263482	      3.60767773	      0.00000000	    -11.95095395	     -0.42523423	    -22.61358098	      3.97677576	     14.89690267	     -1.47351312	      0.00000000	      8.37003928	      7.28881594	      0.00000000
      0.56666667	     -5.84698431	     -2.23157154	   -175.77166854	     -0.11803777	     -0.01912803	     -0.60025396	    -17.00023366	     -0.71882615	     -5.62838639	     -1.07166908	      2.15640849	      0.23217987	     -0.02058593	      0.00719493	      0.00158180	      0.00000000	      0.00000000	      0.00000000	      0.01790127	     -0.00820156	      0.01122794	      0.00000000	      0.00000000	      0.00000000	     -0.00546188	     -0.00607014	     -0.00782424	     -6.87378828	      7.38840265	     40.97655815	     18.79320452	      0.00000000	      0.00000000	      0.00000000	      0.00000000	      9.51662133	     10.50625505	    -72.22978216	      9.59571286	      0.00000000	      0.00000000	      0.00000000	      0.00000000	    -11.95361483	     -5.08736997	    -17.20586396	      2.75279529	      7.17808000	     -2.73393915	      0.00000000	      2.07932842	      3.51397764	      0.00000000	    -12.02555002	     -0.45400398	    -22.55001820	      4.20102138	     14.89690267	     -1.61964402	      0.00000000	      8.42732182	      7.18839909	      0.00000000
      0.60000000	     -5.45475101	     -2.61104495	   -175.68913106	     -0.11963714	     -0.01883257	     -0.60010190	    -16.63237494	     -1.16394765	     -5.98194397	     -1.34762819	      1.64597543	      0.67372380	     -0.02071122	      0.00671167	      0.00319090	      0.00000000	      0.00000000	      0.00000000	      0.01713654	     -0.00871839	      0.01278490	      0.00000000	      0.00000000	      0.00000000	     -0.00874645	     -0.00710321	     -0.00723454	     -6.11161106	      8.31803505	     42.51049063	     16.76970063	      0.00000000	      0.00000000	      0.00000000	      0.00000000	     10.01933438	     11.12033078	    -73.19645212	      9.73232415	      0.00000000	      0.00000000	      0.00000000	      0.00000000	    -11.72103484	     -5.68620453	    -17.50553048	      2.76513082	      7.36826912	     -2.25815839	      0.00000000	      2.38021925	      2.97947092	      0.00000000	    -11.90720303	     -0.01409264	    -21.45770142	      4.51220218	     14.89690267	     -1.91809224	      0.00000000	      7.86723507	      5.86031015	      0.00000000
      0.63333333	     -5.32246399	     -2.50763394	   -175.57002871	     -0.12161053	     -0.01863952	     -0.59974644	    -16.44770859	     -0.88446365	     -6.19706859	     -1.24439668	      1.24959757	      0.87395655	     -0.02047070	      0.00603533	      0.00265368	      0.00000000	      0.00000000	      0.00000000	      0.01689693	     -0.00839206	      0.01240803	      0.00000000	      0.00000000	      0.00000000	     -0.01147913	     -0.00809616	     -0.00923242	     -6.12369735	      8.58975745	     44.65395409	     15.43731325	      0.00000000	      0.00000000	      0.00000000	      0.00000000	      9.71967388	     11.72554416	    -73.35884886	      9.13077025	      0.00000000	      0.00000000	      0.00000000	      0.00000000	    -11.73109923	     -5.66679192	    -17.92039231	      2.75679079	      7.68216478	     -1.96780129	      0.00000000	      2.44809085	      2.76335215	      0.00000000	    -12.10985234	     -0.16874134	    -21.55700837	      4.96685089	     14.89690267	     -1.88376457	      0.00000000	      7.92265785	      6.42158538	      0.00000000
      0.66666667	     -5.27352652	     -2.49644758	   -175.55777370	     -0.12346664	     -0.01843881	     -0.59943084	    -16.33643194	     -0.86497355	     -6.16437210	     -1.22029902	      1.24354895	      0.90937729	     -0.02049931	      0.00556120	      0.00244372	      0.00000000	      0.00000000	      0.00000000	      0.01681705	     -0.00889671	      0.01175030	      0.00000000	      0.00000000	      0.00000000	     -0.01189920	     -0.00854466	     -0.00905466	     -6.28100298	      8.38522555	     44.69085576	     15.22377490	      0.00000000	      0.00000000	      0.00000000	      0.00000000	      9.89005869	     11.87124326	    -73.31862360	      9.01001788	      0.00000000	      0.00000000	      0.00000000	      0.00000000	    -11.80337930	     -5.68932288	    -17.89712336	      2.73401783	      7.70656939	     -1.87918609	      0.00000000	      2.55617331	      2.76577175	      0.00000000	    -12.21668540	     -0.20423183	    -21.51006092	      5.02616463	     14.89690267	     -1.86751076	      0.00000000	      7.98495683	      6.52627700	      0.00000000
      0.70000000	     -5.48913632	     -2.66722444	   -175.56262746	     -0.12584894	     -0.01853236	     -0.59808545	    -16.41368099	     -0.85233077	     -6.61945734	     -1.24411417	      0.55040674	      2.11973917	     -0.02069682	      0.00549156	      0.00455228	      0.00000000	      0.00000000	      0.00000000	      0.01606984	     -0.00897437	      0.01242273	      0.00000000	      0.00000000	      0.00000000	     -0.01276155	     -0.00837291	     -0.01076386	     -5.94226601	      9.06505154	     45.09000158	     14.17812116	      0.00000000	      0.00000000	      0.00000000	      0.00000000	      9.22348693	     11.87481237	    -73.93655381	      7.60576329	      0.00000000	      0.00000000	      0.00000000	      0.00000000	    -12.28653808	     -6.14083919	    -18.04872126	      2.80780324	      7.39598230	     -1.35248711	      0.00000000	      3.13630630	      2.93071339	      0.00000000	    -12.75762853	      0.16923994	    -22.98424120	      5.39281424	     14.89690267	     -2.00796748	      0.00000000	      8.63196590	      9.56251778	      0.00000000
      0.73333333	     -5.47580230	     -2.65225729	   -175.68665315	     -0.12758914	     -0.01829064	     -0.59732429	    -16.28804123	     -0.83164524	     -6.59421006	     -1.23931994	      0.55670430	      2.14266150	     -0.02107124	      0.00502893	      0.00448959	      0.00000000	      0.00000000	      0.00000000	      0.01554720	     -0.00983133	      0.01204335	      0.00000000	      0.00000000	      0.00000000	     -0.01181142	     -0.00853301	     -0.00975621	     -5.98102667	      9.43700991	     44.95652615	     14.29666280	      0.00000000	      0.00000000	      0.00000000	      0.00000000	      9.33407361	     11.64807940	    -73.95828827	      7.48446718	      0.00000000	      0.00000000	      0.00000000	      0.00000000	    -12.34746290	     -6.19541437	    -18.06791163	      2.85344572	      7.34268517	     -1.39375355	      0.00000000	      3.16033473	      2.92109914	      0.00000000	    -12.92573090	      0.24910860	    -22.97096656	      5.42028548	     14.89690267	     -2.02083523	      0.00000000	      8.81103723	      9.61769859	      0.00000000
      0.76666667	     -5.46437932	     -2.69048021	   -175.72607350	     -0.12921102	     -0.01817437	     -0.59668576	    -16.17358447	     -0.89757563	     -6.46110038	     -1.29584810	      0.56685507	      2.19108236	     -0.02161006	      0.00477438	      0.00520638	      0.00000000	      0.00000000	      0.00000000	      0.01372578	     -0.00981116	      0.01366915	      0.00000000	      0.00000000	      0.00000000	     -0.01236459	     -0.00869018	     -0.00982490	     -5.83946788	      9.65273892	     44.79223231	     14.57740856	      0.00000000	      0.00000000	      0.00000000	      0.00000000	      9.28294309	     11.95068712	    -73.84302751	      7.59975854	      0.00000000	      0.00000000	      0.00000000	      0.00000000	    -12.45844665	     -6.26627804	    -18.03333207	      2.94564169	      7.29671447	     -1.49126419	      0.00000000	      3.18802679	      2.95666211	      0.00000000	    -13.11155614	      0.39123497	    -22.89220822	      5.50974512	     14.89690267	     -2.09253607	      0.00000000	      9.05195643	      9.63909723	      0.00000000
      0.80000000	     -6.39847079	     -2.88727218	   -175.80986336	     -0.13121362	     -0.01826873	     -0.59648312	    -17.11622612	     -1.13216180	     -6.00237534	     -1.40298239	      0.75933085	      1.76646371	     -0.02267877	      0.00532113	      0.00549547	      0.00000000	      0.00000000	      0.00000000	      0.01470002	     -0.00845513	      0.01091564	      0.00000000	      0.00000000	      0.00000000	     -0.01169714	     -0.00824810	     -0.01027416	     -7.24831652	      7.73890752	     41.79246876	     18.70050239	      0.00000000	      0.00000000	      0.00000000	      0.00000000	      9.26729666	     12.05494304	    -68.91664490	      9.04750538	      0.00000000	      0.00000000	      0.00000000	      0.00000000	    -13.67207490	     -6.39152517	    -17.20717862	      3.16516694	      5.67174581	     -1.59707827	      0.00000000	      3.41998917	      4.55246245	      0.00000000	    -14.37834742	      0.48783709	    -22.10312151	      5.72705525	     14.89690267	     -1.98252771	      0.00000000	      8.57680040	      8.63362577	      0.00000000
      0.83333333	     -6.42076127	     -2.80008520	   -175.84661448	     -0.13238890	     -0.01848718	     -0.59647565	    -17.10928244	     -1.09454556	     -5.82716625	     -1.53326914	      0.95017287	      1.20135106	     -0.02359133	      0.00571483	      0.00496131	      0.00000000	      0.00000000	      0.00000000	      0.01369430	     -0.00711487	      0.00837431	      0.00000000	      0.00000000	      0.00000000	     -0.01366925	     -0.00859754	     -0.01175052	     -8.81168389	      6.52500001	     41.92314996	     22.11536594	      0.00000000	      0.00000000	      0.00000000	      0.00000000	      9.10094809	     12.45688482	    -65.35391219	     10.13401111	      0.00000000	      0.00000000	      0.00000000	      0.00000000	    -13.72067292	     -6.26778563	    -16.59714179	      3.09863745	      4.77363770	     -1.77012018	      0.00000000	      3.80960028	      5.76061391	      0.00000000	    -14.48271915	      0.41484816	    -21.39012447	      5.71082563	     14.89690267	     -2.10118344	      0.00000000	      8.47247807	      7.59330466	      0.00000000
      0.86666667	     -6.34143996	     -2.64736640	   -175.84452517	     -0.13369430	     -0.01895188	     -0.59671529	    -16.99027292	     -0.99722348	     -5.77484215	     -1.51763783	      0.97758071	      0.80893746	     -0.02375887	      0.00609305	      0.00495407	      0.00000000	      0.00000000	      0.00000000	      0.01300883	     -0.00621838	      0.00638426	      0.00000000	      0.00000000	      0.00000000	     -0.01482332	     -0.00865040	     -0.01233232	     -9.54329690	      5.97035019	     41.67747482	     23.81541857	      0.00000000	      0.00000000	      0.00000000	      0.00000000	      9.19834226	     12.72443038	    -64.34728304	     10.79289342	      0.00000000	      0.00000000	      0.00000000	      0.00000000	    -13.58620368	     -6.07733343	    -16.12116053	      2.85183288	      4.44585425	     -1.86253503	      0.00000000	      4.33995365	      5.95809863	      0.00000000	    -14.34560895	      0.26671591	    -20.98372868	      5.44196392	     14.89690267	     -2.33244260	      0.00000000	      8.78888541	      7.15060067	      0.00000000
      0.90000000	     -6.17016306	     -2.43896229	   -175.79540865	     -0.13490014	     -0.01909886	     -0.59667477	    -16.87615206	     -0.72720743	     -5.94255117	     -1.37804830	      0.77999284	      0.61190023	     -0.02332276	      0.00623184	      0.00504009	      0.00000000	      0.00000000	      0.00000000	      0.01257147	     -0.00605273	      0.00591473	      0.00000000	      0.00000000	      0.00000000	     -0.01434329	     -0.00834731	     -0.01098052	     -9.02648357	      6.48869536	     40.90280890	     22.85928706	      0.00000000	      0.00000000	      0.00000000	      0.00000000	      9.75413512	     12.41993428	    -65.05034259	     11.47697344	      0.00000000	      0.00000000	      0.00000000	      0.00000000	    -13.28233044	     -6.00582951	    -15.85310494	      2.46985966	      4.24120324	     -1.59822707	      0.00000000	      4.65387085	      5.60022348	      0.00000000	    -14.14730519	     -0.00321308	    -20.90617119	      5.26143370	     14.89690267	     -2.31640473	      0.00000000	      9.09395020	      7.17901973	      0.00000000
      0.93333333	     -5.88826872	     -2.27614719	   -175.77963700	     -0.13570979	     -0.01864256	     -0.59630875	    -16.79685479	     -0.44580045	     -6.16924970	     -0.82466382	      0.40246960	      0.56097440	     -0.02103750	      0.00560737	      0.00556849	      0.00000000	      0.00000000	      0.00000000	      0.01301158	     -0.00626034	      0.00824406	      0.00000000	      0.00000000	      0.00000000	     -0.01247243	     -0.00768487	     -0.00740650	     -7.43131505	      7.57965856	     39.56697434	     19.78876038	      0.00000000	      0.00000000	      0.00000000	      0.00000000	     11.05733769	     11.49905711	    -67.55832082	     12.74725143	      0.00000000	      0.00000000	      0.00000000	      0.00000000	    -12.73330217	     -6.05929618	    -15.47852873	      1.88241271	      4.23675411	     -1.37235385	      0.00000000	      4.65564098	      5.02613068	      0.00000000	    -13.64815784	     -0.16783464	    -21.07823768	      4.68402154	     14.89690267	     -2.43723202	      0.00000000	      9.47473016	      7.69480039	      0.00000000
      0.96666667	     -5.50170696	     -2.25813153	   -175.74747917	     -0.13539172	     -0.01751572	     -0.59563647	    -17.00774541	     -0.26863033	     -6.39097712	     -0.00488219	      0.09263964	      0.48162884	     -0.01812807	      0.00431406	      0.00633319	      0.00000000	      0.00000000	      0.00000000	      0.01371754	     -0.00662913	      0.00951145	      0.00000000	      0.00000000	      0.00000000	     -0.01221923	     -0.00685444	     -0.00408596	     -6.49140691	      8.24652055	     38.23550599	     17.52136951	      0.00000000	      0.00000000	      0.00000000	      0.00000000	     12.22208333	     10.73066226	    -70.06695630	     13.32965466	      0.00000000	      0.00000000	      0.00000000	      0.00000000	    -11.82253626	     -6.24407159	    -15.34297774	      0.88548501	      4.22656193	     -1.34841890	      0.00000000	      4.58740796	      4.50343934	      0.00000000	    -12.82191673	     -0.12027940	    -21.62677195	      3.87535964	     14.78484853	     -2.57680382	      0.00000000	      9.54587834	      8.46454879	      0.00000000
      1.00000000	     -5.57240761	     -2.27259585	   -175.63938152	     -0.13455291	     -0.01602892	     -0.59454126	    -17.93281906	     -0.00042654	     -6.60530483	      0.18698007	      0.03468333	      0.35558585	     -0.01498921	      0.00374847	      0.00663634	      0.00000000	      0.00000000	      0.00000000	      0.01672035	     -0.00591175	      0.00780381	      0.00000000	      0.00000000	      0.00000000	     -0.01237132	     -0.00631034	     -0.00226515	     -6.87344052	      7.64932231	     38.11565345	     16.93630461	      0.00000000	      0.00000000	      0.00000000	      0.00000000	     12.65428392	      9.92530674	    -70.10286669	     12.73898930	      0.00000000	      0.00000000	      0.00000000	      0.00000000	    -11.31395744	     -6.44099148	    -15.47562073	     -0.24807379	      4.05120868	     -1.36607354	      0.00000000	      4.11083194	      4.42348972	      0.00000000	    -12.43418386	     -0.03917077	    -21.97236378	      3.22370377	     14.58184746	     -2.58024889	      0.00000000	      9.19762837	      8.48838766	      0.00000000
      1.03333333	     -5.38841968	     -2.41551199	   -175.34659479	     -0.13030741	     -0.01442395	     -0.59292312	    -19.72709055	      0.32320865	     -6.65961148	      2.07807196	     -0.18039367	     -0.14825194	     -0.01225710	      0.00161321	      0.00726066	      0.00000000	      0.00000000	      0.00000000	      0.01508242	     -0.00490566	      0.00493852	      0.00000000	      0.00000000	      0.00000000	     -0.01693062	     -0.00745303	     -0.00095932	     -7.56028207	      7.51406662	     37.93229593	     15.74518486	      0.00000000	      0.00000000	      0.00000000	      0.00000000	     12.77969738	     10.41643004	    -68.08429584	     11.32443305	      0.00000000	      0.00000000	      0.00000000	      0.00000000	     -9.89747403	     -6.86110270	    -15.33175805	     -2.37277952	      3.86283566	     -1.52058736	      0.00000000	      4.18730169	      3.86601256	      0.00000000	    -10.93099084	      0.43930672	    -22.63528415	      1.51288777	     14.89690267	     -3.53466288	      0.00000000	      9.38722356	      9.03441324	      0.00000000
      1.06666667	     -5.34927248	     -2.57674453	   -174.99017890	     -0.12480077	     -0.01369974	     -0.59162399	    -22.04093212	      0.57478466	     -6.61195592	      3.68984661	     -0.09148285	     -0.43173117	     -0.00949669	      0.00030871	      0.00848863	      0.00000000	      0.00000000	      0.00000000	      0.01476172	     -0.00472307	      0.00156942	      0.00000000	      0.00000000	      0.00000000	     -0.01893403	     -0.00861482	     -0.00066507	     -7.97960985	      6.94853254	     37.48452479	     13.34506181	      0.00000000	      0.00000000	      0.00000000	      0.00000000	     13.04640521	     10.59369663	    -65.22404905	     10.74952197	      0.00000000	      0.00000000	      0.00000000	      0.00000000	     -8.39866264	     -7.23072665	    -15.01066141	     -4.76157609	      3.56228379	     -1.73521130	      0.00000000	      4.33483701	      3.13388309	      0.00000000	     -9.15217852	      1.00365519	    -23.28594725	     -0.76250905	     14.89690267	     -4.98473282	      0.00000000	      9.95282091	      9.77497117	      0.00000000
      1.10000000	     -2.92639360	     -2.53354971	   -175.58349881	     -0.11696431	     -0.01486181	     -0.59191165	    -22.31118802	      0.26540311	     -6.18686319	      5.61961139	      0.58566166	     -0.54129034	     -0.00724328	     -0.00170786	      0.00784409	      0.00000000	      0.00000000	      0.00000000	      0.01269819	     -0.00651706	      0.00397518	      0.00000000	      0.00000000	      0.00000000	     -0.01362726	     -0.00995741	      0.00021769	     -6.33147751	      7.46089035	     32.72380114	      8.07796109	      0.00000000	      0.00000000	      0.00000000	      0.00000000	     14.12600090	      6.99600949	    -50.82177633	     16.01637128	      0.00000000	      0.00000000	      0.00000000	      0.00000000	     -3.50330762	     -7.54697103	    -11.77880985	     -8.07565018	      2.64459448	     -1.91084421	      0.00000000	      5.37209525	      0.58904535	      0.00000000	     -4.56353023	      0.62753945	    -25.63726830	     -3.82937613	     14.51933123	     -4.98473282	      0.00000000	     11.83455955	     12.53280824	      0.00000000
      1.13333333	     -2.58107145	     -2.72699016	   -175.86840390	     -0.10737739	     -0.01807484	     -0.59291904	    -25.95928937	     -0.12749684	     -5.78336092	      9.55463293	      1.36166693	     -0.37600881	     -0.00796573	     -0.00222281	      0.00801216	      0.00000000	      0.00000000	      0.00000000	      0.00947672	     -0.00719747	      0.00092737	      0.00000000	      0.00000000	      0.00000000	     -0.01144282	     -0.00855197	      0.00350987	     -7.63134246	      7.10189546	     30.47236928	      7.81480996	      0.00000000	      0.00000000	      0.00000000	      0.00000000	     16.29560073	      5.78003280	    -49.67766486	     18.94330489	      0.00000000	      0.00000000	      0.00000000	      0.00000000	     -0.39151372	     -8.02791789	    -10.69259571	    -12.23817684	      2.18613795	     -1.98377796	      0.00000000	      7.33415856	      0.61570023	      0.00000000	     -1.42337441	      0.05990642	    -24.02729349	     -8.53376993	     12.82721651	     -4.98473282	      0.00000000	     13.65665472	     11.54493670	      0.00000000
      1.16666667	     14.17543156	      0.28816755	   -171.32130594	     -0.08397869	     -0.02884802	     -0.59311253	    -11.74456132	      2.88599721	     -9.60318693	     11.65247108	      1.62954233	      1.02003240	     -0.00996368	     -0.00225450	      0.00524363	      0.00000000	      0.00000000	      0.00000000	      0.00972704	     -0.00593369	     -0.00077771	      0.00000000	      0.00000000	      0.00000000	     -0.00864538	     -0.00804551	      0.00115040	     -9.40171947	      4.82471980	     25.49798147	      8.91315979	      0.00000000	      0.00000000	      0.00000000	      0.00000000	     15.95345679	      3.62650876	    -50.02866390	     18.65651660	      0.00000000	      0.00000000	      0.00000000	      0.00000000	     22.22390532	     -8.56808900	    -12.62861769	    -21.00911495	     -0.98560835	     -1.95038131	      0.00000000	     11.96688468	      3.74789707	      0.00000000	     25.23502270	     -0.05768305	     -6.38733611	    -22.72488627	      1.11666878	     -4.98473282	      0.00000000	     19.13910107	     10.11397968	      0.00000000
      1.20000000	     23.30469731	      1.66525820	   -171.75192654	     -0.06795309	     -0.04351101	     -0.59307050	     -5.49485240	      3.50803515	     -9.12828928	     13.68003890	      1.55287522	      1.33499669	     -0.01316839	      0.00201107	      0.00202070	      0.00000000	      0.00000000	      0.00000000	      0.00703012	     -0.00154208	     -0.00134529	      0.00000000	      0.00000000	      0.00000000	     -0.00297720	     -0.00310917	     -0.00228324	    -11.53004968	      3.14774640	     29.50707906	      7.38997516	      0.00000000	      0.00000000	      0.00000000	      0.00000000	     14.71821764	      1.00921034	    -50.48835779	     16.52150638	      0.00000000	      0.00000000	      0.00000000	      0.00000000	     37.48050756	     -9.77407680	    -12.98666705	    -30.22508918	      0.72563251	     -2.28578546	      0.00000000	     15.86136412	      4.46691959	      0.00000000	     40.42246313	      0.20700416	     -3.87444381	    -32.08783375	     -2.24873577	     -4.98473282	      0.00000000	     22.66772608	     10.49507631	      0.00000000
      1.23333333	     26.30381920	      2.43365811	   -171.72506690	     -0.05546385	     -0.06098606	     -0.59259317	     -6.26568025	      4.47277136	     -9.17327953	     16.99771350	      1.48455090	      2.30133113	     -0.01614814	      0.00440737	      0.00092542	      0.00000000	      0.00000000	      0.00000000	      0.00610299	     -0.00025452	      0.00130128	      0.00000000	      0.00000000	      0.00000000	     -0.00156223	      0.00095256	     -0.00747934	    -12.11129205	      1.53811676	     28.10654015	      5.41127074	      0.00000000	      0.00000000	      0.00000000	      0.00000000	     12.77254921	     -0.83480530	    -47.95889685	     12.57908401	      0.00000000	      0.00000000	      0.00000000	      0.00000000	     45.55764572	    -11.09354845	    -13.67989709	    -38.56510183	      2.02030153	     -2.29204313	      0.00000000	     19.57791403	      5.04580887	      0.00000000	     48.49488140	      0.21443583	     -3.06180087	    -40.39911543	     -2.35829205	     -4.98473282	      0.00000000	     26.34070834	      9.60435938	      0.00000000
      1.26666667	     27.84797335	      2.37397744	   -171.81378472	     -0.04395783	     -0.08202570	     -0.59153510	     -8.71805370	      4.72240094	     -9.04156545	     20.88980027	      1.64731605	      2.79917918	     -0.01416237	      0.00379903	      0.00047991	      0.00000000	      0.00000000	      0.00000000	      0.00687718	     -0.00262096	      0.00520774	      0.00000000	      0.00000000	      0.00000000	     -0.00331970	      0.00278704	     -0.01238315	    -12.22957148	     -0.52682464	     24.59336576	      4.34876179	      0.00000000	      0.00000000	      0.00000000	      0.00000000	     11.45597592	     -1.89410795	    -46.18103390	      8.34534640	      0.00000000	      0.00000000	      0.00000000	      0.00000000	     52.30460640	    -12.72422956	    -14.20681430	    -46.92335940	      2.96623512	     -3.11262590	      0.00000000	     22.99770049	      6.39313422	      0.00000000	     54.74471502	      0.68885311	     -2.91562891	    -48.04600933	     -2.52026572	     -4.98473282	      0.00000000	     29.48059314	      9.04641007	      0.00000000
      1.30000000	     29.53152819	      2.54078056	   -171.51960073	     -0.03309642	     -0.10618464	     -0.59014980	    -10.91163450	      5.32681664	     -9.39817296	     25.13873269	      1.54090157	      2.51516766	     -0.00654594	     -0.00010200	      0.00064867	      0.00000000	      0.00000000	      0.00000000	      0.00954463	     -0.00464040	      0.00697684	      0.00000000	      0.00000000	      0.00000000	     -0.00325773	      0.00248055	     -0.01416680	    -13.44746098	     -3.36620626	     20.85281096	      6.92962870	      0.00000000	      0.00000000	      0.00000000	      0.00000000	     11.63200473	     -2.99059312	    -48.31602625	      5.75856428	      0.00000000	      0.00000000	      0.00000000	      0.00000000	     58.90080446	    -14.47575487	    -14.73270754	    -54.61532230	      2.56677713	     -3.94690903	      0.00000000	     25.86234202	      8.71586976	      0.00000000	     61.18372015	      1.22650978	     -2.82412385	    -55.28775382	     -2.67262185	     -4.98473282	      0.00000000	     31.98565001	     10.05467527	      0.00000000
      1.33333333	     30.34306624	      2.70375198	   -171.24491920	     -0.02317852	     -0.13220045	     -0.58874538	    -14.37101504	      6.04938125	     -9.37761447	     30.93737710	      1.07784721	      1.60389566	      0.00658412	     -0.00593452	      0.00260965	      0.00000000	      0.00000000	      0.00000000	      0.01117673	     -0.00337668	      0.00615069	      0.00000000	      0.00000000	      0.00000000	      0.00191507	      0.00279039	     -0.01280379	    -15.83396713	     -5.72417232	     20.41342530	     11.34886155	      0.00000000	      0.00000000	      0.00000000	      0.00000000	     12.52436866	     -3.44603523	    -53.20939586	      3.90919522	      0.00000000	      0.00000000	      0.00000000	      0.00000000	     64.37505309	    -15.77684617	    -14.48183547	    -61.81970137	      1.60023310	     -4.80990538	      0.00000000	     27.92610731	     10.27211778	      0.00000000	     66.59834086	      1.80676907	     -2.57211820	    -62.29935633	     -3.61497706	     -4.98473282	      0.00000000	     33.69391160	     11.40566502	      0.00000000
      1.36666667	     33.39100467	      3.12088362	   -171.71864368	     -0.01418873	     -0.16126823	     -0.58746866	    -15.26861622	      6.65989618	     -8.80429336	     34.85250591	      0.17531085	      0.01438687	      0.01495660	     -0.01215317	      0.00315230	      0.00000000	      0.00000000	      0.00000000	      0.01338294	     -0.00170691	      0.00084422	      0.00000000	      0.00000000	      0.00000000	      0.01336255	      0.00270064	     -0.00886133	    -19.12247187	     -8.45953585	     21.13258349	     17.45283882	      0.00000000	      0.00000000	      0.00000000	      0.00000000	     13.48997226	     -4.13601774	    -66.21264903	      1.97072635	      0.00000000	      0.00000000	      0.00000000	      0.00000000	     72.30008614	    -16.24507794	    -12.63527731	    -68.84338930	     -0.38049937	     -4.98473282	      0.00000000	     31.08449417	     12.41544293	      0.00000000	     74.19012057	      1.78904945	     -2.56757513	    -69.23548560	     -5.83137756	     -4.98473282	      0.00000000	     36.22554538	     14.65552102	      0.00000000
      1.40000000	     35.57059917	      3.35032479	   -172.61438251	     -0.00659539	     -0.18998085	     -0.58656412	    -17.87807421	      6.89170698	     -7.37445226	     40.50337633	     -1.23484030	     -1.44619926	      0.01911355	     -0.01695020	      0.00613165	      0.00000000	      0.00000000	      0.00000000	      0.01052396	     -0.00232373	     -0.00476908	      0.00000000	      0.00000000	      0.00000000	      0.02848602	      0.00286020	     -0.00367549	    -20.93774793	     -7.68142403	     22.89686975	     18.21760967	      0.00000000	      0.00000000	      0.00000000	      0.00000000	     13.63452646	     -4.51273437	    -72.23653899	      0.00000000	      0.00000000	      0.00000000	      0.00000000	      0.00000000	     79.20546111	    -15.99733778	    -10.48061475	    -75.55693074	     -1.34955968	     -4.89876781	      0.00000000	     32.88635967	     12.37862002	      0.00000000	     80.58719425	      1.59610656	     -2.23652387	    -75.91323579	     -7.43277322	     -4.98473282	      0.00000000	     38.17282873	     15.30766527	      0.00000000
      1.43333333	     37.42602993	      3.37010423	   -173.68741230	     -0.00114257	     -0.21931581	     -0.58545798	    -20.66363171	      6.71135038	     -5.86856612	     46.03353865	     -2.42281957	     -1.96590711	      0.01716285	     -0.01943174	      0.00907572	      0.00000000	      0.00000000	      0.00000000	      0.00965531	     -0.00325366	     -0.00716580	      0.00000000	      0.00000000	      0.00000000	      0.04473923	      0.00113474	      0.00024820	    -20.60410426	     -4.16036942	     24.22170030	     15.16346915	      0.00000000	      0.00000000	      0.00000000	      0.00000000	     13.69242016	     -5.22319214	    -71.32045244	      0.00000000	      0.00000000	      0.00000000	      0.00000000	      0.00000000	     85.62654593	    -15.43094505	     -8.82465240	    -81.89188847	     -2.79910148	     -4.98473282	      0.00000000	     34.47274943	     11.56260240	      0.00000000	     86.51354090	      1.45440205	     -1.88054263	    -82.55066098	     -8.53144669	     -4.98473282	      0.00000000	     40.42667186	     13.95232845	      0.00000000
      1.46666667	     40.69103251	      2.88061067	   -174.93116807	      0.00278526	     -0.24845056	     -0.58402160	    -21.12260151	      5.55670899	     -5.52570740	     49.82106524	     -1.15349370	     -1.78296509	      0.00942890	     -0.02215081	      0.00815045	      0.00000000	      0.00000000	      0.00000000	      0.01130993	     -0.00287731	     -0.00897419	      0.00000000	      0.00000000	      0.00000000	      0.01503739	      0.00067712	     -0.02165025	    -19.98062736	      2.16349973	     23.95787229	     12.68224729	      0.00000000	      0.00000000	      0.00000000	      0.00000000	      7.73981294	      6.55452709	     80.80792428	      0.00000000	      0.00000000	      0.00000000	      0.00000000	      0.00000000	     93.20371731	    -14.65752538	     -6.73224403	    -87.10685833	     -6.15084432	     -4.98473282	      0.00000000	     36.62386042	     13.60640454	      0.00000000	     93.47299263	      1.24976719	     -2.25675302	    -88.68323599	     -7.21628194	     -4.98473282	      0.00000000	     42.73539615	      9.43321244	      0.00000000
      1.50000000	     44.77522240	      2.53416830	   -175.99611645	      0.00558618	     -0.27522434	     -0.58323023	    -19.54548437	      4.35574492	     -4.79910350	     52.45477271	     -1.65164454	     -1.28184171	      0.00159592	     -0.02477040	      0.01217125	      0.00000000	      0.00000000	      0.00000000	      0.01892412	     -0.00176169	     -0.01230531	      0.00000000	      0.00000000	      0.00000000	      0.01827342	     -0.00327254	     -0.02237252	    -20.17943202	      5.33380521	      8.58031172	     24.43905071	      0.00000000	      0.00000000	      0.00000000	      0.00000000	      7.74581802	      9.99446603	     76.03035203	      0.00000000	      0.00000000	      0.00000000	      0.00000000	      0.00000000	    100.93314190	    -13.66272747	     -5.04347822	    -91.39964153	     -8.16631850	     -4.98473282	      0.00000000	     37.98986392	     13.96391566	      0.00000000	    100.71636670	      0.99031889	     -2.52897416	    -93.52134363	     -8.89880994	     -4.98473282	      0.00000000	     44.98830061	      8.94221002	      0.00000000
      1.53333333	     49.64564001	      2.22813126	   -176.51482045	      0.00726457	     -0.29857760	     -0.58373239	    -15.60523113	      2.84887904	     -5.68227332	     52.98399450	     -0.18567880	      0.12742442	     -0.00365420	     -0.02805958	      0.01742098	      0.00000000	      0.00000000	      0.00000000	      0.03183143	     -0.00672517	     -0.00752883	      0.00000000	      0.00000000	      0.00000000	      0.01172494	     -0.00437709	     -0.02029804	    -19.27175363	      9.04144760	     -0.72700041	     42.30061972	      0.00000000	      0.00000000	      0.00000000	      0.00000000	      8.73072396	     16.19832882	     63.88333386	      0.00000000	      0.00000000	      0.00000000	      0.00000000	      0.00000000	    108.78727290	    -12.85915921	     -3.48472753	    -94.93437719	     -9.54271348	     -4.98473282	      0.00000000	     39.30598321	     14.50176750	      0.00000000	    107.82128322	      0.84529913	     -2.81861937	    -97.24837994	     -9.62723202	     -4.98473282	      0.00000000	     46.62002720	      9.09523477	      0.00000000
      1.56666667	     54.75661615	      2.29835258	   -176.84418315	      0.00740446	     -0.31692644	     -0.58466014	     -9.95045010	      2.32575029	     -4.89023111	     53.58736662	      0.21157649	      0.49951236	     -0.00137796	     -0.02912272	      0.01602664	      0.00000000	      0.00000000	      0.00000000	      0.02959429	     -0.01460311	     -0.00828059	      0.00000000	      0.00000000	      0.00000000	      0.02656039	     -0.00350766	      0.00850690	    -22.19278263	     16.74106838	     -1.32689505	     48.48733783	      0.00000000	      0.00000000	      0.00000000	      0.00000000	     16.62287251	     17.72494611	    -64.79822949	      0.00000000	      0.00000000	      0.00000000	      0.00000000	      0.00000000	    116.04509781	    -12.13003430	     -2.40230348	    -97.81337309	     -9.51283456	     -4.98473282	      0.00000000	     40.02340025	     14.44886938	      0.00000000	    114.25214705	      0.77359611	     -2.69789939	   -100.08034660	     -8.98708100	     -4.98473282	      0.00000000	     47.17588138	      8.68240078	      0.00000000
      1.60000000	     56.50122245	      2.21879779	   -176.98184696	      0.00484558	     -0.32901951	     -0.58690052	     -7.29498697	      1.61607714	     -4.44534266	     53.85746750	      1.12948888	      0.01791594	      0.00207922	     -0.03047186	      0.01423054	      0.00000000	      0.00000000	      0.00000000	      0.02444638	     -0.01836985	     -0.00851966	      0.00000000	      0.00000000	      0.00000000	      0.00553761	     -0.00630552	      0.01457181	    -25.74418946	     23.81743946	      3.36527264	     48.95832839	      0.00000000	      0.00000000	      0.00000000	      0.00000000	     18.98867082	     30.22850081	    -62.93966195	      0.00000000	      0.00000000	      0.00000000	      0.00000000	      0.00000000	    119.12027144	    -11.15382048	     -1.56133864	   -100.19352184	     -9.90235703	     -4.98473282	      0.00000000	     40.19211383	     14.10768583	      0.00000000	    116.56660100	      0.99410161	     -2.11522476	   -102.37765351	     -8.71078974	     -4.98473282	      0.00000000	     47.39549486	      8.34050880	      0.00000000
      1.63333333	     59.18355308	      2.85288537	   -177.67803971	      0.00022386	     -0.33536555	     -0.58984025	     -2.36475293	      1.78571107	     -4.18422955	     52.70434246	      1.48328119	      0.33004867	      0.00614027	     -0.03315129	      0.01442782	      0.00000000	      0.00000000	      0.00000000	      0.02149949	     -0.01820552	     -0.01278059	      0.00000000	      0.00000000	      0.00000000	      0.01314795	      0.00186121	      0.02524891	    -29.22116481	     26.82799687	      8.66652585	     54.01389485	      0.00000000	      0.00000000	      0.00000000	      0.00000000	     22.58765277	     26.25959647	    -17.00285781	     29.15419690	      0.00000000	      0.00000000	      0.00000000	      0.00000000	    122.11766937	     -9.73654057	     -1.55833477	   -101.56266427	    -10.14483751	     -4.77138443	      0.00000000	     39.65874378	     13.31769830	      0.00000000	    119.74030334	      1.40702394	     -0.43602177	   -104.29284400	     -6.24607178	     -4.98473282	      0.00000000	     45.91030980	      3.53277952	      0.00000000
      1.66666667	     58.52868567	      3.47364177	   -178.20176104	     -0.00668058	     -0.33386848	     -0.59206717	     -0.90219371	      2.51250815	     -3.61177921	     52.48989745	      1.56163445	     -0.02160008	      0.00824710	     -0.03550830	      0.01141550	      0.00000000	      0.00000000	      0.00000000	      0.02112019	     -0.01644565	     -0.01740760	      0.00000000	      0.00000000	      0.00000000	      0.02365558	      0.00435526	      0.02610500	    -31.91057675	     27.20803573	      6.66215709	     69.32975589	      0.00000000	      0.00000000	      0.00000000	      0.00000000	     22.91863173	     22.35962389	     -5.18363449	     59.73740685	      0.00000000	      0.00000000	      0.00000000	      0.00000000	    120.73128312	     -8.35125591	     -0.58651081	   -101.99122892	    -11.41457354	     -3.48861372	      0.00000000	     39.36331305	     13.61980371	      0.00000000	    119.13292987	      2.04600395	      1.22182312	   -105.02030604	     -8.43377007	     -4.98473282	      0.00000000	     44.40718563	      3.61846436	      0.00000000
      1.70000000	     57.50869088	      4.24479777	   -178.49103107	     -0.01546397	     -0.32496185	     -0.59383135	      0.95336598	      3.44337274	     -3.91156300	     51.57467383	      1.62164769	      0.23601778	      0.00820583	     -0.03882188	      0.01062234	      0.00000000	      0.00000000	      0.00000000	      0.02102003	     -0.01996163	     -0.01753768	      0.00000000	      0.00000000	      0.00000000	      0.02957449	     -0.00394101	      0.02500986	    -32.17704135	     30.62393249	     -0.18485273	     86.04903614	      0.00000000	      0.00000000	      0.00000000	      0.00000000	     26.45278114	     23.47317095	      2.01644232	     85.58049741	      0.00000000	      0.00000000	      0.00000000	      0.00000000	    117.92700767	     -7.02749967	     -0.40771495	   -100.92795631	    -12.78596028	     -3.11810274	      0.00000000	     39.03261204	     13.64123273	      0.00000000	    117.21804213	      2.71974752	      2.88712675	   -104.27202486	    -10.21817734	     -4.98473282	      0.00000000	     43.47563376	      4.59490071	      0.00000000
      1.73333333	     53.82974592	      5.70833999	   -178.33641681	     -0.02625489	     -0.30840665	     -0.59497917	      0.45879518	      5.26686985	     -5.21369927	     49.69144485	      2.71174039	      0.89282041	      0.00392079	     -0.04267514	      0.00918894	      0.00000000	      0.00000000	      0.00000000	      0.01862332	     -0.02154400	     -0.01705550	      0.00000000	      0.00000000	      0.00000000	      0.03372405	     -0.01018608	      0.02176747	    -33.92896877	     37.37407424	     -8.26133922	     97.28472210	      0.00000000	      0.00000000	      0.00000000	      0.00000000	     33.15582554	     29.70860356	     11.88013355	    103.23422068	      0.00000000	      0.00000000	      0.00000000	      0.00000000	    111.13819744	     -6.00289372	     -2.00014759	    -98.19782077	    -14.89690267	     -3.86533581	      0.00000000	     39.14584061	     14.14778259	      0.00000000	    111.49189863	      3.53697235	      5.36832926	   -102.08624546	    -13.66501731	     -4.98473282	      0.00000000	     42.79834326	      9.08225657	      0.00000000
      1.76666667	     50.18504886	      6.92719380	   -177.87732883	     -0.03987567	     -0.28592991	     -0.59639907	      1.43469135	      6.45205169	     -6.66787696	     45.95015693	      3.25492229	      0.68083052	     -0.00014966	     -0.04594623	      0.01067715	      0.00000000	      0.00000000	      0.00000000	      0.01789617	     -0.01796345	     -0.01843226	      0.00000000	      0.00000000	      0.00000000	      0.04632545	     -0.00653066	      0.02386260	    -42.09822063	     41.08666652	    -18.81779622	    105.76939902	      0.00000000	      0.00000000	      0.00000000	      0.00000000	     44.49288608	     34.55189065	     23.61700980	    116.10394281	      0.00000000	      0.00000000	      0.00000000	      0.00000000	    103.42727406	     -4.82647772	     -3.83057015	    -94.05370646	    -14.89690267	     -4.98473282	      0.00000000	     38.82261130	     12.52624697	      0.00000000	    104.52877257	      3.80023045	      7.44047066	    -98.55782702	    -14.89690267	     -4.98473282	      0.00000000	     42.00204748	     11.47922608	      0.00000000
      1.80000000	     44.74632778	      8.09913831	   -177.10848310	     -0.05701556	     -0.25802997	     -0.59762513	      1.44485712	      7.61965104	     -8.18284459	     40.23618675	      4.19361944	      0.73465909	     -0.00574425	     -0.04750788	      0.01230715	      0.00000000	      0.00000000	      0.00000000	      0.02652470	     -0.00932081	     -0.01829026	      0.00000000	      0.00000000	      0.00000000	      0.05783656	      0.00416437	      0.03008708	    -58.50508451	     41.52684830	    -34.73700281	    115.10340158	      0.00000000	      0.00000000	      0.00000000	      0.00000000	     61.05661858	     36.55931091	     38.86110296	    126.18737284	      0.00000000	      0.00000000	      0.00000000	      0.00000000	     92.84727363	     -3.37759619	     -4.83533604	    -88.59748880	    -14.89690267	     -4.98473282	      0.00000000	     38.92015353	     11.55268502	      0.00000000	     94.80894181	      3.43920570	      9.24468278	    -93.93840069	    -14.89690267	     -4.98473282	      0.00000000	     41.07458675	     11.49653940	      0.00000000
      1.83333333	     38.48320069	      8.61904866	   -176.16135889	     -0.07760422	     -0.22404578	     -0.59837929	      1.17418095	      8.19153855	     -9.31656218	     33.22850710	      4.81472350	      0.78893406	     -0.01019991	     -0.04642438	      0.01416284	      0.00000000	      0.00000000	      0.00000000	      0.03861134	      0.00250438	     -0.01276648	      0.00000000	      0.00000000	      0.00000000	      0.05677060	      0.01279666	      0.03636878	    -80.00398569	     40.85560277	    -57.01396443	    120.37046861	      0.00000000	      0.00000000	      0.00000000	      0.00000000	     81.95860000	     36.90662421	     58.64162890	    129.68619804	      0.00000000	      0.00000000	      0.00000000	      0.00000000	     80.45702449	     -1.67591702	     -5.25267781	    -81.11481978	    -14.89690267	     -4.98473282	      0.00000000	     38.63770354	     10.78030052	      0.00000000	     83.41685026	      2.13070289	      9.62499137	    -87.67243788	    -14.89690267	     -4.98473282	      0.00000000	     40.04986199	     11.21596984	      0.00000000
      1.86666667	     31.82725062	      7.95272721	   -175.22176940	     -0.10087001	     -0.18170559	     -0.59854615	      0.30260099	      7.43231999	     -9.71812326	     25.61081569	      4.79759079	      0.70804455	     -0.01356974	     -0.04398927	      0.01814636	      0.00000000	      0.00000000	      0.00000000	      0.03880336	      0.01626440	     -0.00852496	      0.00000000	      0.00000000	      0.00000000	      0.04324595	      0.01554489	      0.03649910	   -100.27305126	     38.28552159	    -77.99051336	    114.81382624	      0.00000000	      0.00000000	      0.00000000	      0.00000000	    104.07202814	     36.64768202	     79.63112987	    123.91702335	      0.00000000	      0.00000000	      0.00000000	      0.00000000	     66.58588094	     -0.21242820	     -4.39576474	    -71.12890495	    -14.89690267	     -4.98473282	      0.00000000	     36.39758974	      9.62748464	      0.00000000	     70.43175180	      0.23630768	      7.85073471	    -78.82455511	    -14.54092925	     -4.98473282	      0.00000000	     38.29897573	     11.13566467	      0.00000000
      1.90000000	     25.11970931	      5.53448367	   -175.15777657	     -0.12576475	     -0.12953753	     -0.59571576	     -1.43324076	      5.39186831	     -8.49928832	     17.46823722	      4.25975576	      0.29903521	     -0.01838656	     -0.04036738	      0.01875038	      0.00000000	      0.00000000	      0.00000000	      0.02661226	      0.02966163	     -0.01644086	      0.00000000	      0.00000000	      0.00000000	      0.02590164	      0.01911844	      0.03132524	   -115.60936850	     31.90425789	    -89.42541289	    101.05403482	      0.00000000	      0.00000000	      0.00000000	      0.00000000	    122.34021798	     34.66057969	     96.25206292	    112.35729492	      0.00000000	      0.00000000	      0.00000000	      0.00000000	     51.51824275	     -0.14827833	     -2.15532703	    -58.45372262	    -13.03621837	     -4.98473282	      0.00000000	     30.07187705	      6.94000519	      0.00000000	     55.76323638	     -1.43845799	      3.20868099	    -67.07609889	    -12.44876741	     -4.98473282	      0.00000000	     34.09013010	     10.64401352	      0.00000000
      1.93333333	     17.46314045	      1.60192767	   -176.03742297	     -0.15325551	     -0.06719859	     -0.59137418	     -4.71273193	      1.72651709	     -6.39931619	      9.17442852	      3.18907973	     -0.92913825	     -0.02283963	     -0.03540958	      0.01818935	      0.00000000	      0.00000000	      0.00000000	      0.01089584	      0.03794954	     -0.02696947	      0.00000000	      0.00000000	      0.00000000	      0.00743224	      0.02500033	      0.02785075	   -125.82486215	     24.23643723	    -88.55932975	     83.94861056	      0.00000000	      0.00000000	      0.00000000	      0.00000000	    135.82056655	     30.36025650	    105.68111164	     96.99911235	      0.00000000	      0.00000000	      0.00000000	      0.00000000	     34.33677838	     -2.26622576	      0.32651023	    -42.88237739	    -11.16519220	     -4.98473282	      0.00000000	     18.56889665	      4.42312445	      0.00000000	     38.20660819	     -1.70774751	     -3.84391814	    -51.61578263	     -8.06150890	     -4.98473282	      0.00000000	     25.39309327	      9.45825841	      0.00000000
      1.96666667	     10.55171044	     -2.17764486	   -178.30117410	     -0.18195718	      0.00252497	     -0.58665316	     -7.11788221	     -2.14365838	     -3.14883968	      0.59020406	      2.24871210	     -2.56227717	     -0.02685254	     -0.02668866	      0.01465860	      0.00000000	      0.00000000	      0.00000000	     -0.00331561	      0.04593426	     -0.02956486	      0.00000000	      0.00000000	      0.00000000	     -0.00412279	      0.03338565	      0.03124879	   -131.29427733	     18.33530464	    -75.23387505	     72.12051988	      0.00000000	      0.00000000	      0.00000000	      0.00000000	    144.89635887	     21.62791397	    105.92187986	     77.75314077	      0.00000000	      0.00000000	      0.00000000	      0.00000000	     17.96888888	     -5.93718149	     -0.17999783	    -25.58727917	    -10.07918286	     -4.98473282	      0.00000000	      0.80586994	      3.95093935	      0.00000000	     20.26900319	     -0.12754508	    -11.20344932	    -32.32807743	     -2.57572276	     -4.98473282	      0.00000000	      8.97487557	      6.22820664	      0.00000000
      2.00000000	     11.82232227	     -3.12352414	   -179.53402938	     -0.20252366	      0.07367613	     -0.58323232	     -0.90883696	     -3.15661875	     -0.80780222	     -8.32302565	      1.17573439	     -3.90379401	     -0.03023253	     -0.01277667	      0.00898328	      0.00000000	      0.00000000	      0.00000000	     -0.01415808	      0.05526149	     -0.02430082	      0.00000000	      0.00000000	      0.00000000	     -0.00805089	      0.04647439	      0.03326244	   -130.33698890	     18.38387277	    -58.70211154	     72.72245112	      0.00000000	      0.00000000	      0.00000000	      0.00000000	    153.06959336	     10.50785771	     95.73923974	     54.43618106	      0.00000000	      0.00000000	      0.00000000	      0.00000000	     12.93486939	     -7.69184707	     -3.36211967	    -12.23263095	    -11.74556570	     -4.90407899	      0.00000000	    -20.33361899	      5.87734234	      0.00000000	     14.10413589	      1.21482282	    -13.08190358	    -15.88448319	     -1.93342603	     -4.98473282	      0.00000000	    -13.01236126	      4.87795016	      0.00000000
      2.03333333	     11.95057474	     -2.11772320	   -179.91872136	     -0.21904072	      0.14404363	     -0.58283907	      3.09868747	     -2.59681478	      0.38821148	    -12.00900475	      1.38365667	     -5.81996416	     -0.02519667	     -0.00443138	      0.00303103	      0.00000000	      0.00000000	      0.00000000	     -0.02013996	      0.05703613	     -0.01912157	      0.00000000	      0.00000000	      0.00000000	     -0.01333314	      0.06626834	      0.02920963	   -119.84230244	     20.87599073	    -45.97251402	     82.09641091	      0.00000000	      0.00000000	      0.00000000	      0.00000000	    164.36308860	      2.88703476	     77.44265003	     29.52725038	      0.00000000	      0.00000000	      0.00000000	      0.00000000	      8.65799006	     -7.23199556	     -6.56277615	     -3.99940568	    -14.10522509	     -4.17613967	      0.00000000	    -37.39664858	      4.47049803	      0.00000000	      9.23339286	      0.26514738	    -13.81018189	     -5.10184286	      4.11833382	     -3.63469596	      0.00000000	    -34.04758462	     -4.76949999	      0.00000000
      2.06666667	     13.51467687	     -0.38993502	   -178.82785651	     -0.23000610	      0.20970872	     -0.58271206	      7.67365990	     -1.35979667	      0.43172808	    -14.54470831	      1.46045609	     -8.08382607	     -0.02253715	      0.00062868	     -0.00075819	      0.00000000	      0.00000000	      0.00000000	     -0.02021870	      0.04676563	     -0.02061061	      0.00000000	      0.00000000	      0.00000000	     -0.02489273	      0.08566045	      0.02454053	   -103.87891983	     18.69706900	    -33.71010998	     93.14900659	      0.00000000	      0.00000000	      0.00000000	      0.00000000	    173.30813228	      3.67724919	     64.82594475	     10.78354387	      0.00000000	      0.00000000	      0.00000000	      0.00000000	      8.14072756	     -5.91414783	    -10.28951007	     -1.23589919	    -13.01287129	     -3.94952938	      0.00000000	    -49.46468766	      1.11916037	      0.00000000	      9.03820342	     -0.79065132	    -13.80780448	     -1.62067969	     10.10623482	     -3.22141288	      0.00000000	    -46.65257719	     -9.42879188	      0.00000000
      2.10000000	     13.69845793	      0.66657826	   -177.09013062	     -0.23856519	      0.26474187	     -0.58243416	     10.05527658	     -0.97448587	     -0.09042402	    -15.32939788	      0.96756976	     -8.58411947	     -0.02068453	      0.00190229	      0.00304641	      0.00000000	      0.00000000	      0.00000000	     -0.01315331	      0.03330835	     -0.02754549	      0.00000000	      0.00000000	      0.00000000	     -0.02871880	      0.09528225	      0.02466721	    -87.93289755	      9.62854588	    -22.30483801	    101.99107711	      0.00000000	      0.00000000	      0.00000000	      0.00000000	    178.02864323	      6.25819546	     64.75759129	      0.57080955	      0.00000000	      0.00000000	      0.00000000	      0.00000000	      7.46007696	     -5.20914590	    -12.42596276	     -1.36459661	    -10.92700666	     -3.69929095	      0.00000000	    -55.63473590	     -1.37133635	      0.00000000	      8.90182627	     -0.91588956	    -13.85908667	     -1.91567095	     12.82459330	     -3.13937547	      0.00000000	    -51.51302181	     -7.07217902	      0.00000000
      2.13333333	     13.70965609	      1.15441355	   -175.75350222	     -0.24462108	      0.30518177	     -0.58094347	     11.76456936	     -0.64720722	      0.42194633	    -14.49652606	      0.69223522	    -11.79311377	     -0.01601429	      0.00084234	      0.00457591	      0.00000000	      0.00000000	      0.00000000	     -0.00799942	      0.02570110	     -0.03364303	      0.00000000	      0.00000000	      0.00000000	     -0.01713308	      0.09543352	      0.02972289	    -75.14362683	     -1.60217208	    -11.85699070	    104.65114550	      0.00000000	      0.00000000	      0.00000000	      0.00000000	    177.91325573	      6.83430547	     69.40884020	      0.00000000	      0.00000000	      0.00000000	      0.00000000	      0.00000000	      7.77124598	     -5.03524936	    -15.79539613	     -2.98260827	     -3.19319090	     -3.82526471	      0.00000000	    -57.14240888	     -2.42823149	      0.00000000	      9.28663192	     -0.39365203	    -16.73770298	     -3.22311458	     13.87363363	     -3.65762090	      0.00000000	    -52.22930930	     -1.24655594	      0.00000000
      2.16666667	     13.04878097	      1.47152050	   -174.41215502	     -0.24909022	      0.33165527	     -0.57830826	     12.12095820	     -0.00640255	      0.93051635	    -13.53493203	     -1.45429626	    -12.01909108	     -0.01416547	      0.00034036	      0.01548977	      0.00000000	      0.00000000	      0.00000000	     -0.01424881	      0.02867680	     -0.03168661	      0.00000000	      0.00000000	      0.00000000	     -0.00260763	      0.09333930	      0.03067451	    -63.23125378	     -8.45364970	     -3.26957423	    100.68999643	      0.00000000	      0.00000000	      0.00000000	      0.00000000	    177.42278157	      7.09902447	     71.86871782	      0.00000000	      0.00000000	      0.00000000	      0.00000000	      0.00000000	      7.55057741	     -5.23813342	    -17.85654523	     -4.07734400	      0.27929209	     -3.64286669	      0.00000000	    -54.94429593	     -1.52727487	      0.00000000	      9.36267996	     -0.20162626	    -19.38591561	     -4.35221229	     12.01511646	     -3.72945952	      0.00000000	    -49.82989760	      4.55209665	      0.00000000
      2.20000000	     12.39858947	      1.99237866	   -173.53635378	     -0.25173067	      0.34691574	     -0.57438381	     11.92245602	      1.44078840	      1.05405333	    -11.83176357	     -3.94793796	    -12.28803834	     -0.01201756	     -0.00094229	      0.02494459	      0.00000000	      0.00000000	      0.00000000	     -0.02567880	      0.03041702	     -0.02237149	      0.00000000	      0.00000000	      0.00000000	      0.00974861	      0.09236802	      0.02957876	    -53.29468847	    -11.28511051	      1.86678523	     95.05597865	      0.00000000	      0.00000000	      0.00000000	      0.00000000	    175.58584314	      6.82239942	     72.02854620	      1.52420055	      0.00000000	      0.00000000	      0.00000000	      0.00000000	      7.63386301	     -5.26345304	    -18.48917724	     -4.87389723	      2.06127010	     -3.71617869	      0.00000000	    -51.43879937	     -0.68508223	      0.00000000	      9.63194511	     -0.13771981	    -21.00129485	     -4.99174829	     10.79986558	     -3.99262402	      0.00000000	    -46.83098979	      6.13887900	      0.00000000
      2.23333333	     12.04358247	      1.73145040	   -173.45761242	     -0.25290606	      0.35254854	     -0.57064514	     11.42652851	      2.08557574	      1.22287385	     -8.92144245	     -5.30282151	    -11.25124670	     -0.00864488	     -0.00387753	      0.03217879	      0.00000000	      0.00000000	      0.00000000	     -0.03204790	      0.02317420	     -0.01491901	      0.00000000	      0.00000000	      0.00000000	      0.01803259	      0.09256053	      0.02699583	    -46.46328961	    -14.30502340	      4.15060978	     91.17411653	      0.00000000	      0.00000000	      0.00000000	      0.00000000	    173.75107680	      6.18791748	     71.07544346	      3.30965752	      0.00000000	      0.00000000	      0.00000000	      0.00000000	      8.33114656	     -6.14509648	    -19.13588292	     -5.37019343	      2.89441290	     -3.90604238	      0.00000000	    -49.36697287	     -0.00165420	      0.00000000	     10.13531741	      0.44119871	    -21.82972714	     -5.74782978	     10.88698476	     -3.87660654	      0.00000000	    -43.67120519	      4.20282868	      0.00000000
      2.26666667	     12.48783668	      0.64653778	   -173.61976918	     -0.25343304	      0.34874833	     -0.56822811	     11.46836820	      1.27375366	      0.88777900	     -4.43714870	     -4.70071117	     -9.27152775	     -0.00126913	     -0.00900718	      0.03549152	      0.00000000	      0.00000000	      0.00000000	     -0.02862832	      0.01297004	     -0.01484673	      0.00000000	      0.00000000	      0.00000000	      0.02203227	      0.09271465	      0.02314821	    -41.80570072	    -18.31609358	      5.14560629	     86.34402694	      0.00000000	      0.00000000	      0.00000000	      0.00000000	    172.83642876	      5.72829203	     68.02854256	      4.76919563	      0.00000000	      0.00000000	      0.00000000	      0.00000000	      9.89861712	     -7.95220250	    -19.91124226	     -5.04333481	      3.59151510	     -3.92183632	      0.00000000	    -49.73234928	      1.02852448	      0.00000000	     11.25161366	      1.84252921	    -22.16337951	     -6.16877463	     13.58449783	     -3.53311424	      0.00000000	    -42.59287366	     -2.11165196	      0.00000000
      2.30000000	     12.75019855	     -1.30220654	   -174.35600425	     -0.25348012	      0.33579407	     -0.56749107	     10.98610789	     -0.86270271	      0.80543928	      0.08244006	     -2.16945032	     -7.69598599	      0.00635054	     -0.01378197	      0.03313881	      0.00000000	      0.00000000	      0.00000000	     -0.02054603	      0.00608075	     -0.02175278	      0.00000000	      0.00000000	      0.00000000	      0.02026581	      0.09249805	      0.01872806	    -38.84277785	    -20.15500104	      7.98912462	     76.26637270	      0.00000000	      0.00000000	      0.00000000	      0.00000000	    173.03303167	      6.10594153	     66.38167969	      5.74196351	      0.00000000	      0.00000000	      0.00000000	      0.00000000	     11.67377512	    -10.40685683	    -19.64022322	     -4.40700617	      3.64835730	     -3.51783329	      0.00000000	    -50.84941687	      1.68372212	      0.00000000	     12.29324743	      4.08189744	    -22.93228303	     -5.90203093	     13.38702952	     -3.84894880	      0.00000000	    -42.69080472	     -5.32125920	      0.00000000
      2.33333333	     12.64259279	     -2.98021571	   -175.12699474	     -0.25468224	      0.31438421	     -0.56862022	     10.31945023	     -2.86345867	      0.27336358	      3.24135847	      1.35929040	     -6.59227389	      0.01321766	     -0.01795164	      0.02505939	      0.00000000	      0.00000000	      0.00000000	     -0.01421847	      0.00635778	     -0.02621732	      0.00000000	      0.00000000	      0.00000000	      0.01780644	      0.09098167	      0.01617216	    -35.19028442	    -17.83389573	     13.37679793	     62.08592752	      0.00000000	      0.00000000	      0.00000000	      0.00000000	    172.63238709	      6.88915015	     64.97117275	      7.66982951	      0.00000000	      0.00000000	      0.00000000	      0.00000000	     13.34694861	    -12.18245242	    -17.90267601	     -4.29036213	      4.16232962	     -3.28724720	      0.00000000	    -49.97650310	      2.25157482	      0.00000000	     12.87175202	      5.58716941	    -23.81347702	     -4.46830993	     11.69984936	     -3.85517760	      0.00000000	    -43.60800362	     -5.41735238	      0.00000000
      2.36666667	     11.58278465	     -3.58213506	   -176.55715965	     -0.25688161	      0.28322670	     -0.57043911	      8.68598787	     -3.23556276	     -0.38925428	      4.03169233	      4.32021937	     -4.96844765	      0.01555789	     -0.01975368	      0.01512833	      0.00000000	      0.00000000	      0.00000000	     -0.01120159	      0.00829295	     -0.02586593	      0.00000000	      0.00000000	      0.00000000	      0.01814238	      0.08676086	      0.01499296	    -30.80133145	    -14.28802843	     18.70660907	     51.01716841	      0.00000000	      0.00000000	      0.00000000	      0.00000000	    170.32527849	      6.43401841	     63.74534105	     12.28730553	      0.00000000	      0.00000000	      0.00000000	      0.00000000	     14.32700492	    -12.34857359	    -14.27505154	     -4.88646477	      4.54928365	     -3.28330137	      0.00000000	    -48.48349906	      1.10571465	      0.00000000	     12.43296249	      5.69129627	    -24.73796466	     -2.54443446	      7.34323953	     -4.13336434	      0.00000000	    -43.08634539	     -1.18752846	      0.00000000
      2.40000000	     10.06326086	     -3.66307738	   -178.19487337	     -0.25918694	      0.23950464	     -0.57187792	      6.38622488	     -2.65268176	     -1.24806311	      2.93259910	      5.33985838	     -2.56602070	      0.01405127	     -0.01829459	      0.00905313	      0.00000000	      0.00000000	      0.00000000	     -0.00557472	      0.00879488	     -0.02292301	      0.00000000	      0.00000000	      0.00000000	      0.01974478	      0.08070653	      0.01559287	    -25.74070706	    -14.33175064	     18.70152737	     48.78867157	      0.00000000	      0.00000000	      0.00000000	      0.00000000	    165.27437906	      4.35558639	     63.66503349	     21.51280738	      0.00000000	      0.00000000	      0.00000000	      0.00000000	     15.14706960	    -11.96814939	    -10.44873843	     -7.02413967	      4.03060091	     -3.38601141	      0.00000000	    -47.14718243	     -1.29618217	      0.00000000	     11.74909050	      5.01398485	    -25.37333976	     -1.72143978	      2.57200116	     -4.66844455	      0.00000000	    -42.14111324	      4.34309994	      0.00000000
      2.43333333	      8.39804290	     -3.72962506	   -180.03490132	     -0.26064295	      0.18150891	     -0.57259764	      3.62851132	     -1.77452419	     -1.57433168	      1.55200318	      4.49921936	     -0.81636171	      0.01203643	     -0.01373296	      0.00598311	      0.00000000	      0.00000000	      0.00000000	     -0.00212093	      0.00637513	     -0.02259540	      0.00000000	      0.00000000	      0.00000000	      0.02068720	      0.07381637	      0.01470965	    -21.91849428	    -16.29795932	     16.12564776	     52.11610691	      0.00000000	      0.00000000	      0.00000000	      0.00000000	    158.42521749	      0.77535127	     62.71812585	     34.48107926	      0.00000000	      0.00000000	      0.00000000	      0.00000000	     16.08771087	    -11.68657113	     -7.55786967	    -10.84163288	      2.36964851	     -3.47906099	      0.00000000	    -44.68028371	     -2.36423507	      0.00000000	     11.23753359	      3.87044659	    -25.15916354	     -3.77206174	     -0.00013585	     -4.98473282	      0.00000000	    -38.49445709	      7.72467632	      0.00000000
      2.46666667	      6.60132477	     -4.54605485	   -182.29373480	     -0.25831372	      0.11188803	     -0.57230568	     -0.15327550	     -1.80650580	     -0.52305797	      1.51029311	      2.52080187	     -0.09063047	      0.00855478	     -0.00828163	      0.00662372	      0.00000000	      0.00000000	      0.00000000	     -0.00624309	     -0.00169417	     -0.02352136	      0.00000000	      0.00000000	      0.00000000	      0.02146480	      0.06499825	      0.01190159	    -19.84941787	    -16.30214715	     14.37262562	     55.71575809	      0.00000000	      0.00000000	      0.00000000	      0.00000000	    151.87825506	     -4.14070663	     61.60332010	     47.64021817	      0.00000000	      0.00000000	      0.00000000	      0.00000000	     17.85551672	    -12.42325491	     -5.37608751	    -17.38953258	      0.37643366	     -3.17941823	      0.00000000	    -36.92055060	     -1.66144319	      0.00000000	     11.86975327	      2.96589968	    -23.14581994	    -11.12532772	     -0.96586403	     -4.98473282	      0.00000000	    -27.80285147	      8.93990494	      0.00000000
      2.50000000	      5.69097452	     -4.88460219	   -183.59869703	     -0.25017966	      0.03588516	     -0.57005014	     -4.03340553	     -1.34084615	     -0.09472514	      3.85167323	      0.09266240	     -0.61536473	      0.00526170	     -0.00535636	      0.00708585	      0.00000000	      0.00000000	      0.00000000	     -0.01097365	     -0.01182785	     -0.02383023	      0.00000000	      0.00000000	      0.00000000	      0.02053108	      0.05114338	      0.00589138	    -19.71605811	    -13.12024122	     15.03101724	     56.86805777	      0.00000000	      0.00000000	      0.00000000	      0.00000000	    146.28540538	     -7.75863263	     63.52007491	     57.94257362	      0.00000000	      0.00000000	      0.00000000	      0.00000000	     21.76059044	    -13.32865471	     -4.14061713	    -28.04822840	      0.80150119	     -2.70010823	      0.00000000	    -20.11188164	      0.03820607	      0.00000000	     15.53951164	      1.87993311	    -19.45656878	    -24.36075533	     -0.28034861	     -4.98473282	      0.00000000	     -7.44128054	      8.22270476	      0.00000000
      2.53333333	      9.22775058	     -4.03061129	   -182.59796860	     -0.23423602	     -0.03984348	     -0.56646101	     -4.07531377	      0.83934070	     -1.04831312	      7.07295394	     -1.96277007	     -1.95844541	      0.00012819	     -0.00590974	      0.00495311	      0.00000000	      0.00000000	      0.00000000	     -0.00999078	     -0.02002991	     -0.02363730	      0.00000000	      0.00000000	      0.00000000	      0.02036490	      0.03195852	     -0.00195631	    -20.80081403	     -8.91566876	     16.60530266	     57.41989145	      0.00000000	      0.00000000	      0.00000000	      0.00000000	    141.18701975	     -7.74116712	     69.56908492	     65.90869167	      0.00000000	      0.00000000	      0.00000000	      0.00000000	     31.08671077	    -13.73957485	     -6.99861234	    -41.26180357	      3.43045078	     -4.41149745	      0.00000000	      2.80683738	      3.81394102	      0.00000000	     26.63902890	      0.35469752	    -14.82131606	    -41.49840720	     -0.41024617	     -4.98473282	      0.00000000	     15.37422236	      7.05364185	      0.00000000
      2.56666667	     10.34333169	     -3.17028271	   -182.08731768	     -0.21450162	     -0.10443858	     -0.56257527	     -8.22416697	      2.66282167	     -1.68319900	     14.37196688	     -2.51473414	     -2.38483628	     -0.00372554	     -0.01307987	      0.00227120	      0.00000000	      0.00000000	      0.00000000	     -0.00259208	     -0.02389589	     -0.01853516	      0.00000000	      0.00000000	      0.00000000	      0.01647743	      0.01681224	     -0.00325346	    -21.02150793	     -3.83101357	     16.63462754	     59.61000698	      0.00000000	      0.00000000	      0.00000000	      0.00000000	    133.99992389	     -5.54082047	     78.97564529	     77.57118987	      0.00000000	      0.00000000	      0.00000000	      0.00000000	     38.72038214	    -14.47729107	     -6.74631810	    -54.01445379	      5.59236323	     -4.98473282	      0.00000000	     20.97902740	      3.54212637	      0.00000000	     35.69737416	     -0.81261472	    -12.66606603	    -57.20062307	     -0.14290100	     -4.98473282	      0.00000000	     32.25427930	      6.80386866	      0.00000000
      2.60000000	     22.48170738	     -0.36461036	   -179.71724426	     -0.19012761	     -0.15830899	     -0.55936559	      0.44300079	      6.85705036	     -3.10054033	     18.05530018	     -3.15689266	     -3.10622694	     -0.00939075	     -0.01936059	     -0.00103689	      0.00000000	      0.00000000	      0.00000000	      0.00614344	     -0.02059960	     -0.01217504	      0.00000000	      0.00000000	      0.00000000	      0.01454458	     -0.00085180	      0.00077520	    -20.73673734	     -0.39240386	     15.81217928	     61.99152375	      0.00000000	      0.00000000	      0.00000000	      0.00000000	    124.32220881	      0.16535047	     84.17436144	     92.04020798	      0.00000000	      0.00000000	      0.00000000	      0.00000000	     57.91030623	    -14.89729156	     -8.12253183	    -65.44089244	      3.32706964	     -4.98473282	      0.00000000	     30.32593144	      6.38826239	      0.00000000	     57.92557446	     -1.19017724	     -7.30151570	    -71.72737565	     -5.97398583	     -4.98473282	      0.00000000	     40.02083755	     12.20997490	      0.00000000
      2.63333333	     26.15909513	      0.36762942	   -179.07406246	     -0.17211044	     -0.19337861	     -0.55643457	     -0.53113719	      8.22664469	     -3.54497645	     23.41311197	     -3.12171017	     -2.34447220	     -0.01444562	     -0.02680945	     -0.00155679	      0.00000000	      0.00000000	      0.00000000	      0.00857513	     -0.01461507	     -0.00805773	      0.00000000	      0.00000000	      0.00000000	      0.00905894	     -0.01476628	      0.01645133	    -20.59553483	      6.59825275	     16.15308280	     59.91532904	      0.00000000	      0.00000000	      0.00000000	      0.00000000	    109.16511402	      5.00647694	     82.04402105	    109.12912008	      0.00000000	      0.00000000	      0.00000000	      0.00000000	     67.22684458	    -16.11711375	     -7.58411691	    -73.09206985	      1.90715748	     -4.98473282	      0.00000000	     33.40943834	      8.02574262	      0.00000000	     68.09481866	     -0.22115423	     -5.76173277	    -80.34804992	    -10.00416612	     -4.98473282	      0.00000000	     41.53991509	     15.38783042	      0.00000000
      2.66666667	     28.12361678	      0.30577461	   -178.75730608	     -0.15953682	     -0.21440831	     -0.55435148	     -2.58256046	      8.34207023	     -4.30309747	     28.08187144	     -1.79679914	     -0.47906896	     -0.01678940	     -0.03283608	     -0.00129639	      0.00000000	      0.00000000	      0.00000000	      0.01088586	     -0.00818244	     -0.00545168	      0.00000000	      0.00000000	      0.00000000	      0.00365724	     -0.02051271	      0.03227358	    -20.56760792	     13.63714091	     18.29120852	     55.25181933	      0.00000000	      0.00000000	      0.00000000	      0.00000000	     88.01420433	     10.50659652	     66.24892578	    124.27566537	      0.00000000	      0.00000000	      0.00000000	      0.00000000	     73.05125048	    -17.15363891	     -6.70349772	    -77.55043923	      1.23701194	     -4.98473282	      0.00000000	     33.84886602	      9.79124337	      0.00000000	     73.79984802	      0.86877673	     -5.53321502	    -84.80426699	    -12.60554229	     -4.98473282	      0.00000000	     41.75164185	     16.87501949	      0.00000000
      2.70000000	     27.78480723	     -0.50004882	   -178.83916127	     -0.15195924	     -0.22554994	     -0.55345169	     -6.28948855	      7.30817494	     -4.87552056	     32.08511297	     -0.79375607	      0.44288354	     -0.01751522	     -0.03625365	     -0.00032553	      0.00000000	      0.00000000	      0.00000000	      0.01186064	     -0.00229188	     -0.00560273	      0.00000000	      0.00000000	      0.00000000	      0.00255744	     -0.02560972	      0.03217430	    -21.59368201	     19.28917963	     21.99485239	     51.13411613	      0.00000000	      0.00000000	      0.00000000	      0.00000000	     66.11767831	     17.33604893	     36.52780919	    127.68662567	      0.00000000	      0.00000000	      0.00000000	      0.00000000	     75.10979084	    -17.82531147	     -5.52194064	    -79.99270750	      1.37546867	     -4.98473282	      0.00000000	     34.59027030	     10.55452247	      0.00000000	     74.99399154	      1.46157390	     -6.35666474	    -86.85496718	    -12.92090160	     -4.98473282	      0.00000000	     42.31394475	     16.42751653	      0.00000000
      2.73333333	     29.39885690	     -1.49625709	   -178.57142619	     -0.14760779	     -0.23207054	     -0.55371045	     -6.21456529	      5.61551646	     -6.54392000	     33.80946017	     -1.76114398	      0.74191189	     -0.01755144	     -0.03720205	      0.00570235	      0.00000000	      0.00000000	      0.00000000	      0.01139925	     -0.00073906	     -0.00705153	      0.00000000	      0.00000000	      0.00000000	     -0.00010096	     -0.03477430	      0.01898027	    -23.94365253	     23.07884883	     28.17374104	     49.81683626	      0.00000000	      0.00000000	      0.00000000	      0.00000000	     46.84092039	     23.79756828	      7.91970035	    114.70582356	      0.00000000	      0.00000000	      0.00000000	      0.00000000	     78.41630675	    -18.58906691	     -4.28910172	    -81.46235658	      0.85137393	     -4.98473282	      0.00000000	     35.89159897	     11.26617989	      0.00000000	     77.26366400	      1.95733146	     -7.50465374	    -87.71850216	    -11.90008017	     -4.98473282	      0.00000000	     42.70169664	     15.14373515	      0.00000000
      2.76666667	     29.77029055	     -2.01347633	   -178.47959497	     -0.14585790	     -0.23484464	     -0.55559402	     -6.60378388	      3.97864208	     -9.07265123	     34.86847059	      0.15650029	      1.79712321	     -0.01732188	     -0.03686245	      0.00733001	      0.00000000	      0.00000000	      0.00000000	      0.01656596	     -0.00242479	     -0.00755441	      0.00000000	      0.00000000	      0.00000000	     -0.00550612	     -0.03961805	      0.00927978	    -25.45955713	     24.67641457	     32.77625236	     52.93890676	      0.00000000	      0.00000000	      0.00000000	      0.00000000	     33.37340903	     25.86693008	     -8.50175695	     94.41881228	      0.00000000	      0.00000000	      0.00000000	      0.00000000	     79.56801946	    -18.48195360	     -3.42797461	    -82.22892105	      0.03420211	     -4.98473282	      0.00000000	     36.81284258	     10.69640098	      0.00000000	     77.76752811	      1.49234923	     -8.38090232	    -88.12575820	    -10.58418294	     -4.98473282	      0.00000000	     43.34168416	     15.29316570	      0.00000000
      2.80000000	     32.60155628	     -3.04408426	   -177.84042373	     -0.14510833	     -0.23514971	     -0.55714871	     -2.97289102	      1.58296766	     -9.54810519	     33.68682497	     -1.22533920	      0.22493806	     -0.01787282	     -0.03527219	      0.01043149	      0.00000000	      0.00000000	      0.00000000	      0.01546008	     -0.00876902	     -0.01243410	      0.00000000	      0.00000000	      0.00000000	     -0.00777220	     -0.03715861	      0.00689701	    -28.61624212	     23.73708972	     33.82020612	     56.78370774	      0.00000000	      0.00000000	      0.00000000	      0.00000000	     25.08731543	     25.75193132	    -20.67518549	     74.54686949	      0.00000000	      0.00000000	      0.00000000	      0.00000000	     83.13242981	    -18.99091982	     -2.26351190	    -82.45105824	     -0.28317882	     -4.98473282	      0.00000000	     36.59656877	      9.89252123	      0.00000000	     80.71381643	      1.60617350	     -9.90324909	    -87.89577498	     -9.34435425	     -4.98473282	      0.00000000	     42.03371370	     14.80680963	      0.00000000
      2.83333333	     33.83370448	     -3.36670711	   -177.52381738	     -0.14593610	     -0.22986850	     -0.55792653	     -0.73717958	      0.10620982	    -10.88141026	     31.75321484	     -0.22541371	      0.33362589	     -0.02119086	     -0.03400085	      0.00975543	      0.00000000	      0.00000000	      0.00000000	      0.01739612	     -0.01226785	     -0.01317077	      0.00000000	      0.00000000	      0.00000000	     -0.01416198	     -0.03001241	      0.00681678	    -28.84986298	     23.84484514	     35.80653266	     57.24680675	      0.00000000	      0.00000000	      0.00000000	      0.00000000	     20.39227066	     22.84458393	    -26.03488730	     60.64831874	      0.00000000	      0.00000000	      0.00000000	      0.00000000	     83.72385399	    -18.98812308	     -2.00713974	    -81.28655708	      0.05852488	     -4.98473282	      0.00000000	     35.83439128	      9.46552174	      0.00000000	     81.39288589	      1.20281652	    -10.96650574	    -86.69242983	     -8.36254514	     -4.98473282	      0.00000000	     41.02675432	     15.58728985	      0.00000000
      2.86666667	     34.69929981	     -3.57473979	   -177.21641825	     -0.14778965	     -0.21903405	     -0.55768096	      1.49891198	     -1.07753246	    -11.46954481	     29.39823708	      0.25089766	      0.47792570	     -0.02528736	     -0.03232354	      0.00908460	      0.00000000	      0.00000000	      0.00000000	      0.01908894	     -0.01335287	     -0.01333066	      0.00000000	      0.00000000	      0.00000000	     -0.01675483	     -0.02299792	      0.00702952	    -28.43305727	     22.89528215	     37.53213467	     56.15266930	      0.00000000	      0.00000000	      0.00000000	      0.00000000	     17.68782002	     18.70941955	    -28.18503919	     54.38986094	      0.00000000	      0.00000000	      0.00000000	      0.00000000	     82.92454799	    -18.88706364	     -2.10845644	    -78.66311892	      0.09892009	     -4.98473282	      0.00000000	     35.45822347	      9.23480175	      0.00000000	     80.88154552	      1.10979161	    -11.67744244	    -84.31942081	     -7.15963997	     -4.98473282	      0.00000000	     40.39593090	     16.63422543	      0.00000000
      2.90000000	     35.28788574	     -3.58249536	   -177.02975771	     -0.15035361	     -0.20296444	     -0.55595531	      3.79410706	     -1.67052311	    -11.35352309	     27.36545838	      0.88465797	      1.13530154	     -0.02716437	     -0.02974383	      0.00669240	      0.00000000	      0.00000000	      0.00000000	      0.02146486	     -0.01204491	     -0.01126796	      0.00000000	      0.00000000	      0.00000000	     -0.01593968	     -0.01827782	      0.00469308	    -27.47950354	     20.95892649	     38.92839789	     54.68097942	      0.00000000	      0.00000000	      0.00000000	      0.00000000	     15.58550131	     14.93969196	    -29.63905052	     52.69877332	      0.00000000	      0.00000000	      0.00000000	      0.00000000	     81.17955592	    -18.62427874	     -2.38819968	    -75.02367883	     -0.35306165	     -4.98473282	      0.00000000	     33.90691684	      9.33471814	      0.00000000	     79.47289569	      1.37952920	    -11.92544472	    -80.98465357	     -6.41736388	     -4.98473282	      0.00000000	     39.09184429	     17.00756452	      0.00000000
      2.93333333	     36.05280967	     -3.15425418	   -177.20574716	     -0.15388122	     -0.18222319	     -0.55385436	      6.46519208	     -1.55221948	    -10.79200452	     24.66710483	      1.27143282	      1.98873864	     -0.03156761	     -0.02802214	      0.00460414	      0.00000000	      0.00000000	      0.00000000	      0.02440008	     -0.00994626	     -0.00679767	      0.00000000	      0.00000000	      0.00000000	     -0.01570800	     -0.01640661	      0.00035274	    -25.64479790	     18.87964581	     40.04642934	     52.86709096	      0.00000000	      0.00000000	      0.00000000	      0.00000000	     13.88658624	     12.18507139	    -31.32731413	     51.79954132	      0.00000000	      0.00000000	      0.00000000	      0.00000000	     78.86473863	    -17.91100609	     -3.30979015	    -70.24295496	     -1.34514180	     -4.98473282	      0.00000000	     31.39224249	     10.01812589	      0.00000000	     77.50899109	      1.41787765	    -11.55463259	    -76.43040817	     -5.34441136	     -4.98473282	      0.00000000	     37.46668993	     16.58662259	      0.00000000
      2.96666667	     36.20349903	     -2.04604540	   -177.39174596	     -0.15856372	     -0.15876531	     -0.55150305	      8.65135399	     -0.34248878	     -9.93563905	     22.46067178	      1.14798530	      2.31983927	     -0.03483581	     -0.02636850	      0.00111267	      0.00000000	      0.00000000	      0.00000000	      0.02484643	     -0.00815992	     -0.00558561	      0.00000000	      0.00000000	      0.00000000	     -0.01884309	     -0.01599987	     -0.00067125	    -24.33264924	     17.75814977	     41.45264575	     49.69868800	      0.00000000	      0.00000000	      0.00000000	      0.00000000	     14.29276594	     11.53119757	    -36.55657662	     48.57269202	      0.00000000	      0.00000000	      0.00000000	      0.00000000	     75.18483722	    -16.89270398	     -4.84906635	    -64.74017120	     -2.33638263	     -4.98473282	      0.00000000	     27.72003773	      9.98473232	      0.00000000	     74.44486654	      1.33904411	    -10.57266030	    -70.84313788	     -4.41673225	     -4.98473282	      0.00000000	     35.69081865	     15.26307809	      0.00000000
      3.00000000	     34.61549223	     -0.27651632	   -177.63006398	     -0.16425721	     -0.13402342	     -0.54930872	      8.73696191	      1.81345263	     -8.71026933	     21.65521904	      0.64698144	      1.52709586	     -0.03678644	     -0.02558508	     -0.00357883	      0.00000000	      0.00000000	      0.00000000	      0.02137074	     -0.00689282	     -0.00712141	      0.00000000	      0.00000000	      0.00000000	     -0.02810016	     -0.01619705	     -0.00002538	    -23.55694443	     18.04773014	     43.50906870	     45.12919143	      0.00000000	      0.00000000	      0.00000000	      0.00000000	     15.90803259	     13.67246982	    -45.56134085	     42.62529036	      0.00000000	      0.00000000	      0.00000000	      0.00000000	     69.13544811	    -15.45257407	     -7.14428462	    -58.82721621	     -1.81474288	     -4.98473282	      0.00000000	     23.15344414	      7.86885823	      0.00000000	     69.20483943	      0.92006937	     -8.87761844	    -64.46881851	     -2.73303200	     -4.98473282	      0.00000000	     34.09463728	     12.51948593	      0.00000000
